[
  {
    "languages": [
      {
        "iso639_1": "ps",
        "iso639_2": "pus",
        "name": "Pashto",
        "nativeName": "پښتو"
      },
      {
        "iso639_1": "uz",
        "iso639_2": "uzb",
        "name": "Uzbek",
        "nativeName": "Oʻzbek"
      },
      {
        "iso639_1": "tk",
        "iso639_2": "tuk",
        "name": "Turkmen",
        "nativeName": "Türkmen"
      }
    ],
    "flag": "https://flagcdn.com/af.svg",
    "name": "Afghanistan",
    "callingCodes": ["93"],
    "capital": "Kabul",
    "subregion": "Southern Asia",
    "region": "Asia"
  },
  {
    "languages": [
      {
        "iso639_1": "sv",
        "iso639_2": "swe",
        "name": "Swedish",
        "nativeName": "svenska"
      }
    ],
    "flag": "https://flagcdn.com/ax.svg",
    "name": "Åland Islands",
    "callingCodes": ["358"],
    "capital": "Mariehamn",
    "subregion": "Northern Europe",
    "region": "Europe"
  },
  {
    "languages": [
      {
        "iso639_1": "sq",
        "iso639_2": "sqi",
        "name": "Albanian",
        "nativeName": "Shqip"
      }
    ],
    "flag": "https://flagcdn.com/al.svg",
    "name": "Albania",
    "callingCodes": ["355"],
    "capital": "Tirana",
    "subregion": "Southern Europe",
    "region": "Europe"
  },
  {
    "languages": [
      {
        "iso639_1": "ar",
        "iso639_2": "ara",
        "name": "Arabic",
        "nativeName": "العربية"
      }
    ],
    "flag": "https://flagcdn.com/dz.svg",
    "name": "Algeria",
    "callingCodes": ["213"],
    "capital": "Algiers",
    "subregion": "Northern Africa",
    "region": "Africa"
  },
  {
    "languages": [
      {
        "iso639_1": "en",
        "iso639_2": "eng",
        "name": "English",
        "nativeName": "English"
      },
      {
        "iso639_1": "sm",
        "iso639_2": "smo",
        "name": "Samoan",
        "nativeName": "gagana fa'a Samoa"
      }
    ],
    "flag": "https://flagcdn.com/as.svg",
    "name": "American Samoa",
    "callingCodes": ["1"],
    "capital": "Pago Pago",
    "subregion": "Polynesia",
    "region": "Oceania"
  },
  {
    "languages": [
      {
        "iso639_1": "ca",
        "iso639_2": "cat",
        "name": "Catalan",
        "nativeName": "català"
      }
    ],
    "flag": "https://flagcdn.com/ad.svg",
    "name": "Andorra",
    "callingCodes": ["376"],
    "capital": "Andorra la Vella",
    "subregion": "Southern Europe",
    "region": "Europe"
  },
  {
    "languages": [
      {
        "iso639_1": "pt",
        "iso639_2": "por",
        "name": "Portuguese",
        "nativeName": "Português"
      }
    ],
    "flag": "https://flagcdn.com/ao.svg",
    "name": "Angola",
    "callingCodes": ["244"],
    "capital": "Luanda",
    "subregion": "Middle Africa",
    "region": "Africa"
  },
  {
    "languages": [
      {
        "iso639_1": "en",
        "iso639_2": "eng",
        "name": "English",
        "nativeName": "English"
      }
    ],
    "flag": "https://flagcdn.com/ai.svg",
    "name": "Anguilla",
    "callingCodes": ["1"],
    "capital": "The Valley",
    "subregion": "Caribbean",
    "region": "Americas"
  },
  {
    "languages": [
      {
        "iso639_1": "en",
        "iso639_2": "eng",
        "name": "English",
        "nativeName": "English"
      },
      {
        "iso639_1": "ru",
        "iso639_2": "rus",
        "name": "Russian",
        "nativeName": "Русский"
      }
    ],
    "flag": "https://flagcdn.com/aq.svg",
    "name": "Antarctica",
    "callingCodes": ["672"],
    "capital": "",
    "subregion": "Antarctica",
    "region": "Polar"
  },
  {
    "languages": [
      {
        "iso639_1": "en",
        "iso639_2": "eng",
        "name": "English",
        "nativeName": "English"
      }
    ],
    "flag": "https://flagcdn.com/ag.svg",
    "name": "Antigua and Barbuda",
    "callingCodes": ["1"],
    "capital": "Saint John's",
    "subregion": "Caribbean",
    "region": "Americas"
  },
  {
    "languages": [
      {
        "iso639_1": "es",
        "iso639_2": "spa",
        "name": "Spanish",
        "nativeName": "Español"
      },
      {
        "iso639_1": "gn",
        "iso639_2": "grn",
        "name": "Guaraní",
        "nativeName": "Avañe'ẽ"
      }
    ],
    "flag": "https://flagcdn.com/ar.svg",
    "name": "Argentina",
    "callingCodes": ["54"],
    "capital": "Buenos Aires",
    "subregion": "South America",
    "region": "Americas"
  },
  {
    "languages": [
      {
        "iso639_1": "hy",
        "iso639_2": "hye",
        "name": "Armenian",
        "nativeName": "Հայերեն"
      }
    ],
    "flag": "https://flagcdn.com/am.svg",
    "name": "Armenia",
    "callingCodes": ["374"],
    "capital": "Yerevan",
    "subregion": "Western Asia",
    "region": "Asia"
  },
  {
    "languages": [
      {
        "iso639_1": "nl",
        "iso639_2": "nld",
        "name": "Dutch",
        "nativeName": "Nederlands"
      },
      {
        "iso639_1": "pa",
        "iso639_2": "pan",
        "name": "(Eastern) Punjabi",
        "nativeName": "ਪੰਜਾਬੀ"
      }
    ],
    "flag": "https://flagcdn.com/aw.svg",
    "name": "Aruba",
    "callingCodes": ["297"],
    "capital": "Oranjestad",
    "subregion": "Caribbean",
    "region": "Americas"
  },
  {
    "languages": [
      {
        "iso639_1": "en",
        "iso639_2": "eng",
        "name": "English",
        "nativeName": "English"
      }
    ],
    "flag": "https://flagcdn.com/au.svg",
    "name": "Australia",
    "callingCodes": ["61"],
    "capital": "Canberra",
    "subregion": "Australia and New Zealand",
    "region": "Oceania"
  },
  {
    "languages": [
      {
        "iso639_1": "de",
        "iso639_2": "deu",
        "name": "German",
        "nativeName": "Deutsch"
      }
    ],
    "flag": "https://flagcdn.com/at.svg",
    "name": "Austria",
    "callingCodes": ["43"],
    "capital": "Vienna",
    "subregion": "Central Europe",
    "region": "Europe"
  },
  {
    "languages": [
      {
        "iso639_1": "az",
        "iso639_2": "aze",
        "name": "Azerbaijani",
        "nativeName": "azərbaycan dili"
      }
    ],
    "flag": "https://flagcdn.com/az.svg",
    "name": "Azerbaijan",
    "callingCodes": ["994"],
    "capital": "Baku",
    "subregion": "Western Asia",
    "region": "Asia"
  },
  {
    "languages": [
      {
        "iso639_1": "en",
        "iso639_2": "eng",
        "name": "English",
        "nativeName": "English"
      }
    ],
    "flag": "https://flagcdn.com/bs.svg",
    "name": "Bahamas",
    "callingCodes": ["1"],
    "capital": "Nassau",
    "subregion": "Caribbean",
    "region": "Americas"
  },
  {
    "languages": [
      {
        "iso639_1": "ar",
        "iso639_2": "ara",
        "name": "Arabic",
        "nativeName": "العربية"
      }
    ],
    "flag": "https://flagcdn.com/bh.svg",
    "name": "Bahrain",
    "callingCodes": ["973"],
    "capital": "Manama",
    "subregion": "Western Asia",
    "region": "Asia"
  },
  {
    "languages": [
      {
        "iso639_1": "bn",
        "iso639_2": "ben",
        "name": "Bengali",
        "nativeName": "বাংলা"
      }
    ],
    "flag": "https://flagcdn.com/bd.svg",
    "name": "Bangladesh",
    "callingCodes": ["880"],
    "capital": "Dhaka",
    "subregion": "Southern Asia",
    "region": "Asia"
  },
  {
    "languages": [
      {
        "iso639_1": "en",
        "iso639_2": "eng",
        "name": "English",
        "nativeName": "English"
      }
    ],
    "flag": "https://flagcdn.com/bb.svg",
    "name": "Barbados",
    "callingCodes": ["1"],
    "capital": "Bridgetown",
    "subregion": "Caribbean",
    "region": "Americas"
  },
  {
    "languages": [
      {
        "iso639_1": "be",
        "iso639_2": "bel",
        "name": "Belarusian",
        "nativeName": "беларуская мова"
      },
      {
        "iso639_1": "ru",
        "iso639_2": "rus",
        "name": "Russian",
        "nativeName": "Русский"
      }
    ],
    "flag": "https://flagcdn.com/by.svg",
    "name": "Belarus",
    "callingCodes": ["375"],
    "capital": "Minsk",
    "subregion": "Eastern Europe",
    "region": "Europe"
  },
  {
    "languages": [
      {
        "iso639_1": "nl",
        "iso639_2": "nld",
        "name": "Dutch",
        "nativeName": "Nederlands"
      },
      {
        "iso639_1": "fr",
        "iso639_2": "fra",
        "name": "French",
        "nativeName": "français"
      },
      {
        "iso639_1": "de",
        "iso639_2": "deu",
        "name": "German",
        "nativeName": "Deutsch"
      }
    ],
    "flag": "https://flagcdn.com/be.svg",
    "name": "Belgium",
    "callingCodes": ["32"],
    "capital": "Brussels",
    "subregion": "Western Europe",
    "region": "Europe"
  },
  {
    "languages": [
      {
        "iso639_1": "en",
        "iso639_2": "eng",
        "name": "English",
        "nativeName": "English"
      },
      {
        "iso639_1": "es",
        "iso639_2": "spa",
        "name": "Spanish",
        "nativeName": "Español"
      }
    ],
    "flag": "https://flagcdn.com/bz.svg",
    "name": "Belize",
    "callingCodes": ["501"],
    "capital": "Belmopan",
    "subregion": "Central America",
    "region": "Americas"
  },
  {
    "languages": [
      {
        "iso639_1": "fr",
        "iso639_2": "fra",
        "name": "French",
        "nativeName": "français"
      }
    ],
    "flag": "https://flagcdn.com/bj.svg",
    "name": "Benin",
    "callingCodes": ["229"],
    "capital": "Porto-Novo",
    "subregion": "Western Africa",
    "region": "Africa"
  },
  {
    "languages": [
      {
        "iso639_1": "en",
        "iso639_2": "eng",
        "name": "English",
        "nativeName": "English"
      }
    ],
    "flag": "https://flagcdn.com/bm.svg",
    "name": "Bermuda",
    "callingCodes": ["1"],
    "capital": "Hamilton",
    "subregion": "Northern America",
    "region": "Americas"
  },
  {
    "languages": [
      {
        "iso639_1": "dz",
        "iso639_2": "dzo",
        "name": "Dzongkha",
        "nativeName": "རྫོང་ཁ"
      }
    ],
    "flag": "https://flagcdn.com/bt.svg",
    "name": "Bhutan",
    "callingCodes": ["975"],
    "capital": "Thimphu",
    "subregion": "Southern Asia",
    "region": "Asia"
  },
  {
    "languages": [
      {
        "iso639_1": "es",
        "iso639_2": "spa",
        "name": "Spanish",
        "nativeName": "Español"
      },
      {
        "iso639_1": "ay",
        "iso639_2": "aym",
        "name": "Aymara",
        "nativeName": "aymar aru"
      },
      {
        "iso639_1": "qu",
        "iso639_2": "que",
        "name": "Quechua",
        "nativeName": "Runa Simi"
      }
    ],
    "flag": "https://flagcdn.com/bo.svg",
    "name": "Bolivia (Plurinational State of)",
    "callingCodes": ["591"],
    "capital": "Sucre",
    "subregion": "South America",
    "region": "Americas"
  },
  {
    "languages": [
      {
        "iso639_1": "nl",
        "iso639_2": "nld",
        "name": "Dutch",
        "nativeName": "Nederlands"
      }
    ],
    "flag": "https://flagcdn.com/bq.svg",
    "name": "Bonaire, Sint Eustatius and Saba",
    "callingCodes": ["599"],
    "capital": "Kralendijk",
    "subregion": "Caribbean",
    "region": "Americas"
  },
  {
    "languages": [
      {
        "iso639_1": "bs",
        "iso639_2": "bos",
        "name": "Bosnian",
        "nativeName": "bosanski jezik"
      },
      {
        "iso639_1": "hr",
        "iso639_2": "hrv",
        "name": "Croatian",
        "nativeName": "hrvatski jezik"
      },
      {
        "iso639_1": "sr",
        "iso639_2": "srp",
        "name": "Serbian",
        "nativeName": "српски језик"
      }
    ],
    "flag": "https://flagcdn.com/ba.svg",
    "name": "Bosnia and Herzegovina",
    "callingCodes": ["387"],
    "capital": "Sarajevo",
    "subregion": "Southern Europe",
    "region": "Europe"
  },
  {
    "languages": [
      {
        "iso639_1": "en",
        "iso639_2": "eng",
        "name": "English",
        "nativeName": "English"
      },
      {
        "iso639_1": "tn",
        "iso639_2": "tsn",
        "name": "Tswana",
        "nativeName": "Setswana"
      }
    ],
    "flag": "https://flagcdn.com/bw.svg",
    "name": "Botswana",
    "callingCodes": ["267"],
    "capital": "Gaborone",
    "subregion": "Southern Africa",
    "region": "Africa"
  },
  {
    "languages": [
      {
        "iso639_1": "no",
        "iso639_2": "nor",
        "name": "Norwegian",
        "nativeName": "Norsk"
      },
      {
        "iso639_1": "nb",
        "iso639_2": "nob",
        "name": "Norwegian Bokmål",
        "nativeName": "Norsk bokmål"
      },
      {
        "iso639_1": "nn",
        "iso639_2": "nno",
        "name": "Norwegian Nynorsk",
        "nativeName": "Norsk nynorsk"
      }
    ],
    "flag": "https://flagcdn.com/bv.svg",
    "name": "Bouvet Island",
    "callingCodes": ["47"],
    "capital": "",
    "subregion": "South Antarctic Ocean",
    "region": "Antarctic Ocean"
  },
  {
    "languages": [
      {
        "iso639_1": "pt",
        "iso639_2": "por",
        "name": "Portuguese",
        "nativeName": "Português"
      }
    ],
    "flag": "https://flagcdn.com/br.svg",
    "name": "Brazil",
    "callingCodes": ["55"],
    "capital": "Brasília",
    "subregion": "South America",
    "region": "Americas"
  },
  {
    "languages": [
      {
        "iso639_1": "en",
        "iso639_2": "eng",
        "name": "English",
        "nativeName": "English"
      }
    ],
    "flag": "https://flagcdn.com/io.svg",
    "name": "British Indian Ocean Territory",
    "callingCodes": ["246"],
    "capital": "Diego Garcia",
    "subregion": "Eastern Africa",
    "region": "Africa"
  },
  {
    "languages": [
      {
        "iso639_1": "en",
        "iso639_2": "eng",
        "name": "English",
        "nativeName": "English"
      }
    ],
    "flag": "https://flagcdn.com/um.svg",
    "name": "United States Minor Outlying Islands",
    "callingCodes": ["246"],
    "capital": "",
    "subregion": "Northern America",
    "region": "Americas"
  },
  {
    "languages": [
      {
        "iso639_1": "en",
        "iso639_2": "eng",
        "name": "English",
        "nativeName": "English"
      }
    ],
    "flag": "https://flagcdn.com/vg.svg",
    "name": "Virgin Islands (British)",
    "callingCodes": ["1"],
    "capital": "Road Town",
    "subregion": "Caribbean",
    "region": "Americas"
  },
  {
    "languages": [
      {
        "iso639_1": "en",
        "iso639_2": "eng",
        "name": "English",
        "nativeName": "English"
      }
    ],
    "flag": "https://flagcdn.com/vi.svg",
    "name": "Virgin Islands (U.S.)",
    "callingCodes": ["1 340"],
    "capital": "Charlotte Amalie",
    "subregion": "Caribbean",
    "region": "Americas"
  },
  {
    "languages": [
      {
        "iso639_1": "ms",
        "iso639_2": "msa",
        "name": "Malay",
        "nativeName": "bahasa Melayu"
      }
    ],
    "flag": "https://flagcdn.com/bn.svg",
    "name": "Brunei Darussalam",
    "callingCodes": ["673"],
    "capital": "Bandar Seri Begawan",
    "subregion": "South-Eastern Asia",
    "region": "Asia"
  },
  {
    "languages": [
      {
        "iso639_1": "bg",
        "iso639_2": "bul",
        "name": "Bulgarian",
        "nativeName": "български език"
      }
    ],
    "flag": "https://flagcdn.com/bg.svg",
    "name": "Bulgaria",
    "callingCodes": ["359"],
    "capital": "Sofia",
    "subregion": "Eastern Europe",
    "region": "Europe"
  },
  {
    "languages": [
      {
        "iso639_1": "fr",
        "iso639_2": "fra",
        "name": "French",
        "nativeName": "français"
      },
      {
        "iso639_1": "ff",
        "iso639_2": "ful",
        "name": "Fula",
        "nativeName": "Fulfulde"
      }
    ],
    "flag": "https://flagcdn.com/bf.svg",
    "name": "Burkina Faso",
    "callingCodes": ["226"],
    "capital": "Ouagadougou",
    "subregion": "Western Africa",
    "region": "Africa"
  },
  {
    "languages": [
      {
        "iso639_1": "fr",
        "iso639_2": "fra",
        "name": "French",
        "nativeName": "français"
      },
      {
        "iso639_1": "rn",
        "iso639_2": "run",
        "name": "Kirundi",
        "nativeName": "Ikirundi"
      }
    ],
    "flag": "https://flagcdn.com/bi.svg",
    "name": "Burundi",
    "callingCodes": ["257"],
    "capital": "Gitega",
    "subregion": "Eastern Africa",
    "region": "Africa"
  },
  {
    "languages": [
      {
        "iso639_1": "km",
        "iso639_2": "khm",
        "name": "Khmer",
        "nativeName": "ខ្មែរ"
      }
    ],
    "flag": "https://flagcdn.com/kh.svg",
    "name": "Cambodia",
    "callingCodes": ["855"],
    "capital": "Phnom Penh",
    "subregion": "South-Eastern Asia",
    "region": "Asia"
  },
  {
    "languages": [
      {
        "iso639_1": "en",
        "iso639_2": "eng",
        "name": "English",
        "nativeName": "English"
      },
      {
        "iso639_1": "fr",
        "iso639_2": "fra",
        "name": "French",
        "nativeName": "français"
      }
    ],
    "flag": "https://flagcdn.com/cm.svg",
    "name": "Cameroon",
    "callingCodes": ["237"],
    "capital": "Yaoundé",
    "subregion": "Middle Africa",
    "region": "Africa"
  },
  {
    "languages": [
      {
        "iso639_1": "en",
        "iso639_2": "eng",
        "name": "English",
        "nativeName": "English"
      },
      {
        "iso639_1": "fr",
        "iso639_2": "fra",
        "name": "French",
        "nativeName": "français"
      }
    ],
    "flag": "https://flagcdn.com/ca.svg",
    "name": "Canada",
    "callingCodes": ["1"],
    "capital": "Ottawa",
    "subregion": "Northern America",
    "region": "Americas"
  },
  {
    "languages": [
      {
        "iso639_1": "pt",
        "iso639_2": "por",
        "name": "Portuguese",
        "nativeName": "Português"
      }
    ],
    "flag": "https://flagcdn.com/cv.svg",
    "name": "Cabo Verde",
    "callingCodes": ["238"],
    "capital": "Praia",
    "subregion": "Western Africa",
    "region": "Africa"
  },
  {
    "languages": [
      {
        "iso639_1": "en",
        "iso639_2": "eng",
        "name": "English",
        "nativeName": "English"
      }
    ],
    "flag": "https://flagcdn.com/ky.svg",
    "name": "Cayman Islands",
    "callingCodes": ["1"],
    "capital": "George Town",
    "subregion": "Caribbean",
    "region": "Americas"
  },
  {
    "languages": [
      {
        "iso639_1": "fr",
        "iso639_2": "fra",
        "name": "French",
        "nativeName": "français"
      },
      {
        "iso639_1": "sg",
        "iso639_2": "sag",
        "name": "Sango",
        "nativeName": "yângâ tî sängö"
      }
    ],
    "flag": "https://flagcdn.com/cf.svg",
    "name": "Central African Republic",
    "callingCodes": ["236"],
    "capital": "Bangui",
    "subregion": "Middle Africa",
    "region": "Africa"
  },
  {
    "languages": [
      {
        "iso639_1": "fr",
        "iso639_2": "fra",
        "name": "French",
        "nativeName": "français"
      },
      {
        "iso639_1": "ar",
        "iso639_2": "ara",
        "name": "Arabic",
        "nativeName": "العربية"
      }
    ],
    "flag": "https://flagcdn.com/td.svg",
    "name": "Chad",
    "callingCodes": ["235"],
    "capital": "N'Djamena",
    "subregion": "Middle Africa",
    "region": "Africa"
  },
  {
    "languages": [
      {
        "iso639_1": "es",
        "iso639_2": "spa",
        "name": "Spanish",
        "nativeName": "Español"
      }
    ],
    "flag": "https://flagcdn.com/cl.svg",
    "name": "Chile",
    "callingCodes": ["56"],
    "capital": "Santiago",
    "subregion": "South America",
    "region": "Americas"
  },
  {
    "languages": [
      {
        "iso639_1": "zh",
        "iso639_2": "zho",
        "name": "Chinese",
        "nativeName": "中文 (Zhōngwén)"
      }
    ],
    "flag": "https://flagcdn.com/cn.svg",
    "name": "China",
    "callingCodes": ["86"],
    "capital": "Beijing",
    "subregion": "Eastern Asia",
    "region": "Asia"
  },
  {
    "languages": [
      {
        "iso639_1": "en",
        "iso639_2": "eng",
        "name": "English",
        "nativeName": "English"
      }
    ],
    "flag": "https://flagcdn.com/cx.svg",
    "name": "Christmas Island",
    "callingCodes": ["61"],
    "capital": "Flying Fish Cove",
    "subregion": "Australia and New Zealand",
    "region": "Oceania"
  },
  {
    "languages": [
      {
        "iso639_1": "en",
        "iso639_2": "eng",
        "name": "English",
        "nativeName": "English"
      }
    ],
    "flag": "https://flagcdn.com/cc.svg",
    "name": "Cocos (Keeling) Islands",
    "callingCodes": ["61"],
    "capital": "West Island",
    "subregion": "Australia and New Zealand",
    "region": "Oceania"
  },
  {
    "languages": [
      {
        "iso639_1": "es",
        "iso639_2": "spa",
        "name": "Spanish",
        "nativeName": "Español"
      }
    ],
    "flag": "https://flagcdn.com/co.svg",
    "name": "Colombia",
    "callingCodes": ["57"],
    "capital": "Bogotá",
    "subregion": "South America",
    "region": "Americas"
  },
  {
    "languages": [
      {
        "iso639_1": "ar",
        "iso639_2": "ara",
        "name": "Arabic",
        "nativeName": "العربية"
      },
      {
        "iso639_1": "fr",
        "iso639_2": "fra",
        "name": "French",
        "nativeName": "français"
      }
    ],
    "flag": "https://flagcdn.com/km.svg",
    "name": "Comoros",
    "callingCodes": ["269"],
    "capital": "Moroni",
    "subregion": "Eastern Africa",
    "region": "Africa"
  },
  {
    "languages": [
      {
        "iso639_1": "fr",
        "iso639_2": "fra",
        "name": "French",
        "nativeName": "français"
      },
      {
        "iso639_1": "ln",
        "iso639_2": "lin",
        "name": "Lingala",
        "nativeName": "Lingála"
      }
    ],
    "flag": "https://flagcdn.com/cg.svg",
    "name": "Congo",
    "callingCodes": ["242"],
    "capital": "Brazzaville",
    "subregion": "Middle Africa",
    "region": "Africa"
  },
  {
    "languages": [
      {
        "iso639_1": "fr",
        "iso639_2": "fra",
        "name": "French",
        "nativeName": "français"
      },
      {
        "iso639_1": "ln",
        "iso639_2": "lin",
        "name": "Lingala",
        "nativeName": "Lingála"
      },
      {
        "iso639_1": "kg",
        "iso639_2": "kon",
        "name": "Kongo",
        "nativeName": "Kikongo"
      },
      {
        "iso639_1": "sw",
        "iso639_2": "swa",
        "name": "Swahili",
        "nativeName": "Kiswahili"
      },
      {
        "iso639_1": "lu",
        "iso639_2": "lub",
        "name": "Luba-Katanga",
        "nativeName": "Tshiluba"
      }
    ],
    "flag": "https://flagcdn.com/cd.svg",
    "name": "Congo (Democratic Republic of the)",
    "callingCodes": ["243"],
    "capital": "Kinshasa",
    "subregion": "Middle Africa",
    "region": "Africa"
  },
  {
    "languages": [
      {
        "iso639_1": "en",
        "iso639_2": "eng",
        "name": "English",
        "nativeName": "English"
      },
      { "iso639_2": "rar", "name": "Cook Islands Māori", "nativeName": "Māori" }
    ],
    "flag": "https://flagcdn.com/ck.svg",
    "name": "Cook Islands",
    "callingCodes": ["682"],
    "capital": "Avarua",
    "subregion": "Polynesia",
    "region": "Oceania"
  },
  {
    "languages": [
      {
        "iso639_1": "es",
        "iso639_2": "spa",
        "name": "Spanish",
        "nativeName": "Español"
      }
    ],
    "flag": "https://flagcdn.com/cr.svg",
    "name": "Costa Rica",
    "callingCodes": ["506"],
    "capital": "San José",
    "subregion": "Central America",
    "region": "Americas"
  },
  {
    "languages": [
      {
        "iso639_1": "hr",
        "iso639_2": "hrv",
        "name": "Croatian",
        "nativeName": "hrvatski jezik"
      }
    ],
    "flag": "https://flagcdn.com/hr.svg",
    "name": "Croatia",
    "callingCodes": ["385"],
    "capital": "Zagreb",
    "subregion": "Southern Europe",
    "region": "Europe"
  },
  {
    "languages": [
      {
        "iso639_1": "es",
        "iso639_2": "spa",
        "name": "Spanish",
        "nativeName": "Español"
      }
    ],
    "flag": "https://flagcdn.com/cu.svg",
    "name": "Cuba",
    "callingCodes": ["53"],
    "capital": "Havana",
    "subregion": "Caribbean",
    "region": "Americas"
  },
  {
    "languages": [
      {
        "iso639_1": "nl",
        "iso639_2": "nld",
        "name": "Dutch",
        "nativeName": "Nederlands"
      },
      {
        "iso639_1": "pa",
        "iso639_2": "pan",
        "name": "(Eastern) Punjabi",
        "nativeName": "ਪੰਜਾਬੀ"
      },
      {
        "iso639_1": "en",
        "iso639_2": "eng",
        "name": "English",
        "nativeName": "English"
      }
    ],
    "flag": "https://flagcdn.com/cw.svg",
    "name": "Curaçao",
    "callingCodes": ["599"],
    "capital": "Willemstad",
    "subregion": "Caribbean",
    "region": "Americas"
  },
  {
    "languages": [
      {
        "iso639_1": "el",
        "iso639_2": "ell",
        "name": "Greek (modern)",
        "nativeName": "ελληνικά"
      },
      {
        "iso639_1": "tr",
        "iso639_2": "tur",
        "name": "Turkish",
        "nativeName": "Türkçe"
      },
      {
        "iso639_1": "hy",
        "iso639_2": "hye",
        "name": "Armenian",
        "nativeName": "Հայերեն"
      }
    ],
    "flag": "https://flagcdn.com/cy.svg",
    "name": "Cyprus",
    "callingCodes": ["357"],
    "capital": "Nicosia",
    "subregion": "Southern Europe",
    "region": "Europe"
  },
  {
    "languages": [
      {
        "iso639_1": "cs",
        "iso639_2": "ces",
        "name": "Czech",
        "nativeName": "čeština"
      },
      {
        "iso639_1": "sk",
        "iso639_2": "slk",
        "name": "Slovak",
        "nativeName": "slovenčina"
      }
    ],
    "flag": "https://flagcdn.com/cz.svg",
    "name": "Czech Republic",
    "callingCodes": ["420"],
    "capital": "Prague",
    "subregion": "Central Europe",
    "region": "Europe"
  },
  {
    "languages": [
      {
        "iso639_1": "da",
        "iso639_2": "dan",
        "name": "Danish",
        "nativeName": "dansk"
      }
    ],
    "flag": "https://flagcdn.com/dk.svg",
    "name": "Denmark",
    "callingCodes": ["45"],
    "capital": "Copenhagen",
    "subregion": "Northern Europe",
    "region": "Europe"
  },
  {
    "languages": [
      {
        "iso639_1": "fr",
        "iso639_2": "fra",
        "name": "French",
        "nativeName": "français"
      },
      {
        "iso639_1": "ar",
        "iso639_2": "ara",
        "name": "Arabic",
        "nativeName": "العربية"
      }
    ],
    "flag": "https://flagcdn.com/dj.svg",
    "name": "Djibouti",
    "callingCodes": ["253"],
    "capital": "Djibouti",
    "subregion": "Eastern Africa",
    "region": "Africa"
  },
  {
    "languages": [
      {
        "iso639_1": "en",
        "iso639_2": "eng",
        "name": "English",
        "nativeName": "English"
      }
    ],
    "flag": "https://flagcdn.com/dm.svg",
    "name": "Dominica",
    "callingCodes": ["1"],
    "capital": "Roseau",
    "subregion": "Caribbean",
    "region": "Americas"
  },
  {
    "languages": [
      {
        "iso639_1": "es",
        "iso639_2": "spa",
        "name": "Spanish",
        "nativeName": "Español"
      }
    ],
    "flag": "https://flagcdn.com/do.svg",
    "name": "Dominican Republic",
    "callingCodes": ["1"],
    "capital": "Santo Domingo",
    "subregion": "Caribbean",
    "region": "Americas"
  },
  {
    "languages": [
      {
        "iso639_1": "es",
        "iso639_2": "spa",
        "name": "Spanish",
        "nativeName": "Español"
      }
    ],
    "flag": "https://flagcdn.com/ec.svg",
    "name": "Ecuador",
    "callingCodes": ["593"],
    "capital": "Quito",
    "subregion": "South America",
    "region": "Americas"
  },
  {
    "languages": [
      {
        "iso639_1": "ar",
        "iso639_2": "ara",
        "name": "Arabic",
        "nativeName": "العربية"
      }
    ],
    "flag": "https://flagcdn.com/eg.svg",
    "name": "Egypt",
    "callingCodes": ["20"],
    "capital": "Cairo",
    "subregion": "Northern Africa",
    "region": "Africa"
  },
  {
    "languages": [
      {
        "iso639_1": "es",
        "iso639_2": "spa",
        "name": "Spanish",
        "nativeName": "Español"
      }
    ],
    "flag": "https://flagcdn.com/sv.svg",
    "name": "El Salvador",
    "callingCodes": ["503"],
    "capital": "San Salvador",
    "subregion": "Central America",
    "region": "Americas"
  },
  {
    "languages": [
      {
        "iso639_1": "es",
        "iso639_2": "spa",
        "name": "Spanish",
        "nativeName": "Español"
      },
      {
        "iso639_1": "fr",
        "iso639_2": "fra",
        "name": "French",
        "nativeName": "français"
      },
      {
        "iso639_1": "pt",
        "iso639_2": "por",
        "name": "Portuguese",
        "nativeName": "Português"
      },
      {
        "iso639_1": "",
        "iso639_2": "fan",
        "name": "Fang",
        "nativeName": "Fang"
      }
    ],
    "flag": "https://flagcdn.com/gq.svg",
    "name": "Equatorial Guinea",
    "callingCodes": ["240"],
    "capital": "Malabo",
    "subregion": "Middle Africa",
    "region": "Africa"
  },
  {
    "languages": [
      {
        "iso639_1": "ti",
        "iso639_2": "tir",
        "name": "Tigrinya",
        "nativeName": "ትግርኛ"
      },
      {
        "iso639_1": "ar",
        "iso639_2": "ara",
        "name": "Arabic",
        "nativeName": "العربية"
      },
      {
        "iso639_1": "en",
        "iso639_2": "eng",
        "name": "English",
        "nativeName": "English"
      },
      {
        "iso639_1": "",
        "iso639_2": "tig",
        "name": "Tigre",
        "nativeName": "ትግረ"
      },
      {
        "iso639_1": "",
        "iso639_2": "kun",
        "name": "Kunama",
        "nativeName": "Kunama"
      },
      {
        "iso639_1": "",
        "iso639_2": "ssy",
        "name": "Saho",
        "nativeName": "Saho"
      },
      {
        "iso639_1": "",
        "iso639_2": "byn",
        "name": "Bilen",
        "nativeName": "ብሊና"
      },
      {
        "iso639_1": "",
        "iso639_2": "nrb",
        "name": "Nara",
        "nativeName": "Nara"
      },
      {
        "iso639_1": "aa",
        "iso639_2": "aar",
        "name": "Afar",
        "nativeName": "Afar"
      }
    ],
    "flag": "https://flagcdn.com/er.svg",
    "name": "Eritrea",
    "callingCodes": ["291"],
    "capital": "Asmara",
    "subregion": "Eastern Africa",
    "region": "Africa"
  },
  {
    "languages": [
      {
        "iso639_1": "et",
        "iso639_2": "est",
        "name": "Estonian",
        "nativeName": "eesti"
      }
    ],
    "flag": "https://flagcdn.com/ee.svg",
    "name": "Estonia",
    "callingCodes": ["372"],
    "capital": "Tallinn",
    "subregion": "Northern Europe",
    "region": "Europe"
  },
  {
    "languages": [
      {
        "iso639_1": "am",
        "iso639_2": "amh",
        "name": "Amharic",
        "nativeName": "አማርኛ"
      }
    ],
    "flag": "https://flagcdn.com/et.svg",
    "name": "Ethiopia",
    "callingCodes": ["251"],
    "capital": "Addis Ababa",
    "subregion": "Eastern Africa",
    "region": "Africa"
  },
  {
    "languages": [
      {
        "iso639_1": "en",
        "iso639_2": "eng",
        "name": "English",
        "nativeName": "English"
      }
    ],
    "flag": "https://flagcdn.com/fk.svg",
    "name": "Falkland Islands (Malvinas)",
    "callingCodes": ["500"],
    "capital": "Stanley",
    "subregion": "South America",
    "region": "Americas"
  },
  {
    "languages": [
      {
        "iso639_1": "fo",
        "iso639_2": "fao",
        "name": "Faroese",
        "nativeName": "føroyskt"
      }
    ],
    "flag": "https://flagcdn.com/fo.svg",
    "name": "Faroe Islands",
    "callingCodes": ["298"],
    "capital": "Tórshavn",
    "subregion": "Northern Europe",
    "region": "Europe"
  },
  {
    "languages": [
      {
        "iso639_1": "en",
        "iso639_2": "eng",
        "name": "English",
        "nativeName": "English"
      },
      {
        "iso639_1": "fj",
        "iso639_2": "fij",
        "name": "Fijian",
        "nativeName": "vosa Vakaviti"
      },
      {
        "iso639_1": "",
        "iso639_2": "hif",
        "name": "Fiji Hindi",
        "nativeName": "फ़िजी बात"
      },
      {
        "iso639_1": "",
        "iso639_2": "rtm",
        "name": "Rotuman",
        "nativeName": "Fäeag Rotuma"
      }
    ],
    "flag": "https://flagcdn.com/fj.svg",
    "name": "Fiji",
    "callingCodes": ["679"],
    "capital": "Suva",
    "subregion": "Melanesia",
    "region": "Oceania"
  },
  {
    "languages": [
      {
        "iso639_1": "fi",
        "iso639_2": "fin",
        "name": "Finnish",
        "nativeName": "suomi"
      },
      {
        "iso639_1": "sv",
        "iso639_2": "swe",
        "name": "Swedish",
        "nativeName": "svenska"
      }
    ],
    "flag": "https://flagcdn.com/fi.svg",
    "name": "Finland",
    "callingCodes": ["358"],
    "capital": "Helsinki",
    "subregion": "Northern Europe",
    "region": "Europe"
  },
  {
    "languages": [
      {
        "iso639_1": "fr",
        "iso639_2": "fra",
        "name": "French",
        "nativeName": "français"
      }
    ],
    "flag": "https://flagcdn.com/fr.svg",
    "name": "France",
    "callingCodes": ["33"],
    "capital": "Paris",
    "subregion": "Western Europe",
    "region": "Europe"
  },
  {
    "languages": [
      {
        "iso639_1": "fr",
        "iso639_2": "fra",
        "name": "French",
        "nativeName": "français"
      }
    ],
    "flag": "https://flagcdn.com/gf.svg",
    "name": "French Guiana",
    "callingCodes": ["594"],
    "capital": "Cayenne",
    "subregion": "South America",
    "region": "Americas"
  },
  {
    "languages": [
      {
        "iso639_1": "fr",
        "iso639_2": "fra",
        "name": "French",
        "nativeName": "français"
      }
    ],
    "flag": "https://flagcdn.com/pf.svg",
    "name": "French Polynesia",
    "callingCodes": ["689"],
    "capital": "Papeetē",
    "subregion": "Polynesia",
    "region": "Oceania"
  },
  {
    "languages": [
      {
        "iso639_1": "fr",
        "iso639_2": "fra",
        "name": "French",
        "nativeName": "français"
      }
    ],
    "flag": "https://flagcdn.com/tf.svg",
    "name": "French Southern Territories",
    "callingCodes": ["262"],
    "capital": "Port-aux-Français",
    "subregion": "Southern Africa",
    "region": "Africa"
  },
  {
    "languages": [
      {
        "iso639_1": "fr",
        "iso639_2": "fra",
        "name": "French",
        "nativeName": "français"
      }
    ],
    "flag": "https://flagcdn.com/ga.svg",
    "name": "Gabon",
    "callingCodes": ["241"],
    "capital": "Libreville",
    "subregion": "Middle Africa",
    "region": "Africa"
  },
  {
    "languages": [
      {
        "iso639_1": "en",
        "iso639_2": "eng",
        "name": "English",
        "nativeName": "English"
      }
    ],
    "flag": "https://flagcdn.com/gm.svg",
    "name": "Gambia",
    "callingCodes": ["220"],
    "capital": "Banjul",
    "subregion": "Western Africa",
    "region": "Africa"
  },
  {
    "languages": [
      {
        "iso639_1": "ka",
        "iso639_2": "kat",
        "name": "Georgian",
        "nativeName": "ქართული"
      }
    ],
    "flag": "https://flagcdn.com/ge.svg",
    "name": "Georgia",
    "callingCodes": ["995"],
    "capital": "Tbilisi",
    "subregion": "Western Asia",
    "region": "Asia"
  },
  {
    "languages": [
      {
        "iso639_1": "de",
        "iso639_2": "deu",
        "name": "German",
        "nativeName": "Deutsch"
      }
    ],
    "flag": "https://flagcdn.com/de.svg",
    "name": "Germany",
    "callingCodes": ["49"],
    "capital": "Berlin",
    "subregion": "Central Europe",
    "region": "Europe"
  },
  {
    "languages": [
      {
        "iso639_1": "en",
        "iso639_2": "eng",
        "name": "English",
        "nativeName": "English"
      }
    ],
    "flag": "https://flagcdn.com/gh.svg",
    "name": "Ghana",
    "callingCodes": ["233"],
    "capital": "Accra",
    "subregion": "Western Africa",
    "region": "Africa"
  },
  {
    "languages": [
      {
        "iso639_1": "en",
        "iso639_2": "eng",
        "name": "English",
        "nativeName": "English"
      }
    ],
    "flag": "https://flagcdn.com/gi.svg",
    "name": "Gibraltar",
    "callingCodes": ["350"],
    "capital": "Gibraltar",
    "subregion": "Southern Europe",
    "region": "Europe"
  },
  {
    "languages": [
      {
        "iso639_1": "el",
        "iso639_2": "ell",
        "name": "Greek (modern)",
        "nativeName": "ελληνικά"
      }
    ],
    "flag": "https://flagcdn.com/gr.svg",
    "name": "Greece",
    "callingCodes": ["30"],
    "capital": "Athens",
    "subregion": "Southern Europe",
    "region": "Europe"
  },
  {
    "languages": [
      {
        "iso639_1": "kl",
        "iso639_2": "kal",
        "name": "Kalaallisut",
        "nativeName": "kalaallisut"
      }
    ],
    "flag": "https://flagcdn.com/gl.svg",
    "name": "Greenland",
    "callingCodes": ["299"],
    "capital": "Nuuk",
    "subregion": "Northern America",
    "region": "Americas"
  },
  {
    "languages": [
      {
        "iso639_1": "en",
        "iso639_2": "eng",
        "name": "English",
        "nativeName": "English"
      }
    ],
    "flag": "https://flagcdn.com/gd.svg",
    "name": "Grenada",
    "callingCodes": ["1"],
    "capital": "St. George's",
    "subregion": "Caribbean",
    "region": "Americas"
  },
  {
    "languages": [
      {
        "iso639_1": "fr",
        "iso639_2": "fra",
        "name": "French",
        "nativeName": "français"
      }
    ],
    "flag": "https://flagcdn.com/gp.svg",
    "name": "Guadeloupe",
    "callingCodes": ["590"],
    "capital": "Basse-Terre",
    "subregion": "Caribbean",
    "region": "Americas"
  },
  {
    "languages": [
      {
        "iso639_1": "en",
        "iso639_2": "eng",
        "name": "English",
        "nativeName": "English"
      },
      {
        "iso639_1": "ch",
        "iso639_2": "cha",
        "name": "Chamorro",
        "nativeName": "Chamoru"
      },
      {
        "iso639_1": "es",
        "iso639_2": "spa",
        "name": "Spanish",
        "nativeName": "Español"
      }
    ],
    "flag": "https://flagcdn.com/gu.svg",
    "name": "Guam",
    "callingCodes": ["1"],
    "capital": "Hagåtña",
    "subregion": "Micronesia",
    "region": "Oceania"
  },
  {
    "languages": [
      {
        "iso639_1": "es",
        "iso639_2": "spa",
        "name": "Spanish",
        "nativeName": "Español"
      }
    ],
    "flag": "https://flagcdn.com/gt.svg",
    "name": "Guatemala",
    "callingCodes": ["502"],
    "capital": "Guatemala City",
    "subregion": "Central America",
    "region": "Americas"
  },
  {
    "languages": [
      {
        "iso639_1": "en",
        "iso639_2": "eng",
        "name": "English",
        "nativeName": "English"
      },
      {
        "iso639_1": "fr",
        "iso639_2": "fra",
        "name": "French",
        "nativeName": "français"
      }
    ],
    "flag": "https://flagcdn.com/gg.svg",
    "name": "Guernsey",
    "callingCodes": ["44"],
    "capital": "St. Peter Port",
    "subregion": "Northern Europe",
    "region": "Europe"
  },
  {
    "languages": [
      {
        "iso639_1": "fr",
        "iso639_2": "fra",
        "name": "French",
        "nativeName": "français"
      },
      {
        "iso639_1": "ff",
        "iso639_2": "ful",
        "name": "Fula",
        "nativeName": "Fulfulde"
      }
    ],
    "flag": "https://flagcdn.com/gn.svg",
    "name": "Guinea",
    "callingCodes": ["224"],
    "capital": "Conakry",
    "subregion": "Western Africa",
    "region": "Africa"
  },
  {
    "languages": [
      {
        "iso639_1": "pt",
        "iso639_2": "por",
        "name": "Portuguese",
        "nativeName": "Português"
      }
    ],
    "flag": "https://flagcdn.com/gw.svg",
    "name": "Guinea-Bissau",
    "callingCodes": ["245"],
    "capital": "Bissau",
    "subregion": "Western Africa",
    "region": "Africa"
  },
  {
    "languages": [
      {
        "iso639_1": "en",
        "iso639_2": "eng",
        "name": "English",
        "nativeName": "English"
      }
    ],
    "flag": "https://flagcdn.com/gy.svg",
    "name": "Guyana",
    "callingCodes": ["592"],
    "capital": "Georgetown",
    "subregion": "South America",
    "region": "Americas"
  },
  {
    "languages": [
      {
        "iso639_1": "fr",
        "iso639_2": "fra",
        "name": "French",
        "nativeName": "français"
      },
      {
        "iso639_1": "ht",
        "iso639_2": "hat",
        "name": "Haitian",
        "nativeName": "Kreyòl ayisyen"
      }
    ],
    "flag": "https://flagcdn.com/ht.svg",
    "name": "Haiti",
    "callingCodes": ["509"],
    "capital": "Port-au-Prince",
    "subregion": "Caribbean",
    "region": "Americas"
  },
  {
    "languages": [
      {
        "iso639_1": "en",
        "iso639_2": "eng",
        "name": "English",
        "nativeName": "English"
      }
    ],
    "flag": "https://flagcdn.com/hm.svg",
    "name": "Heard Island and McDonald Islands",
    "callingCodes": ["672"],
    "capital": "",
    "subregion": "Antarctic",
    "region": "Antarctic"
  },
  {
    "languages": [
      {
        "iso639_1": "la",
        "iso639_2": "lat",
        "name": "Latin",
        "nativeName": "latine"
      },
      {
        "iso639_1": "it",
        "iso639_2": "ita",
        "name": "Italian",
        "nativeName": "Italiano"
      },
      {
        "iso639_1": "fr",
        "iso639_2": "fra",
        "name": "French",
        "nativeName": "Français"
      },
      {
        "iso639_1": "de",
        "iso639_2": "deu",
        "name": "German",
        "nativeName": "Deutsch"
      }
    ],
    "flag": "https://flagcdn.com/va.svg",
    "name": "Vatican City",
    "callingCodes": ["379"],
    "capital": "Vatican City",
    "subregion": "Southern Europe",
    "region": "Europe"
  },
  {
    "languages": [
      {
        "iso639_1": "es",
        "iso639_2": "spa",
        "name": "Spanish",
        "nativeName": "Español"
      }
    ],
    "flag": "https://flagcdn.com/hn.svg",
    "name": "Honduras",
    "callingCodes": ["504"],
    "capital": "Tegucigalpa",
    "subregion": "Central America",
    "region": "Americas"
  },
  {
    "languages": [
      {
        "iso639_1": "hu",
        "iso639_2": "hun",
        "name": "Hungarian",
        "nativeName": "magyar"
      }
    ],
    "flag": "https://flagcdn.com/hu.svg",
    "name": "Hungary",
    "callingCodes": ["36"],
    "capital": "Budapest",
    "subregion": "Central Europe",
    "region": "Europe"
  },
  {
    "languages": [
      {
        "iso639_1": "en",
        "iso639_2": "eng",
        "name": "English",
        "nativeName": "English"
      },
      {
        "iso639_1": "zh",
        "iso639_2": "zho",
        "name": "Chinese",
        "nativeName": "中文 (Zhōngwén)"
      }
    ],
    "flag": "https://flagcdn.com/hk.svg",
    "name": "Hong Kong",
    "callingCodes": ["852"],
    "capital": "City of Victoria",
    "subregion": "Eastern Asia",
    "region": "Asia"
  },
  {
    "languages": [
      {
        "iso639_1": "is",
        "iso639_2": "isl",
        "name": "Icelandic",
        "nativeName": "Íslenska"
      }
    ],
    "flag": "https://flagcdn.com/is.svg",
    "name": "Iceland",
    "callingCodes": ["354"],
    "capital": "Reykjavík",
    "subregion": "Northern Europe",
    "region": "Europe"
  },
  {
    "languages": [
      {
        "iso639_1": "hi",
        "iso639_2": "hin",
        "name": "Hindi",
        "nativeName": "हिन्दी"
      },
      {
        "iso639_1": "en",
        "iso639_2": "eng",
        "name": "English",
        "nativeName": "English"
      }
    ],
    "flag": "https://flagcdn.com/in.svg",
    "name": "India",
    "callingCodes": ["91"],
    "capital": "New Delhi",
    "subregion": "Southern Asia",
    "region": "Asia"
  },
  {
    "languages": [
      {
        "iso639_1": "id",
        "iso639_2": "ind",
        "name": "Indonesian",
        "nativeName": "Bahasa Indonesia"
      }
    ],
    "flag": "https://flagcdn.com/id.svg",
    "name": "Indonesia",
    "callingCodes": ["62"],
    "capital": "Jakarta",
    "subregion": "South-Eastern Asia",
    "region": "Asia"
  },
  {
    "languages": [
      {
        "iso639_1": "fr",
        "iso639_2": "fra",
        "name": "French",
        "nativeName": "français"
      }
    ],
    "flag": "https://flagcdn.com/ci.svg",
    "name": "Ivory Coast",
    "callingCodes": ["225"],
    "capital": "Yamoussoukro",
    "subregion": "Western Africa",
    "region": "Africa"
  },
  {
    "languages": [
      {
        "iso639_1": "fa",
        "iso639_2": "fas",
        "name": "Persian (Farsi)",
        "nativeName": "فارسی"
      }
    ],
    "flag": "https://flagcdn.com/ir.svg",
    "name": "Iran (Islamic Republic of)",
    "callingCodes": ["98"],
    "capital": "Tehran",
    "subregion": "Southern Asia",
    "region": "Asia"
  },
  {
    "languages": [
      {
        "iso639_1": "ar",
        "iso639_2": "ara",
        "name": "Arabic",
        "nativeName": "العربية"
      },
      {
        "iso639_1": "ku",
        "iso639_2": "kur",
        "name": "Kurdish",
        "nativeName": "Kurdî"
      }
    ],
    "flag": "https://flagcdn.com/iq.svg",
    "name": "Iraq",
    "callingCodes": ["964"],
    "capital": "Baghdad",
    "subregion": "Western Asia",
    "region": "Asia"
  },
  {
    "languages": [
      {
        "iso639_1": "ga",
        "iso639_2": "gle",
        "name": "Irish",
        "nativeName": "Gaeilge"
      },
      {
        "iso639_1": "en",
        "iso639_2": "eng",
        "name": "English",
        "nativeName": "English"
      }
    ],
    "flag": "https://flagcdn.com/ie.svg",
    "name": "Ireland",
    "callingCodes": ["353"],
    "capital": "Dublin",
    "subregion": "Northern Europe",
    "region": "Europe"
  },
  {
    "languages": [
      {
        "iso639_1": "en",
        "iso639_2": "eng",
        "name": "English",
        "nativeName": "English"
      },
      {
        "iso639_1": "gv",
        "iso639_2": "glv",
        "name": "Manx",
        "nativeName": "Gaelg"
      }
    ],
    "flag": "https://flagcdn.com/im.svg",
    "name": "Isle of Man",
    "callingCodes": ["44"],
    "capital": "Douglas",
    "subregion": "Northern Europe",
    "region": "Europe"
  },
  {
    "languages": [
      {
        "iso639_1": "he",
        "iso639_2": "heb",
        "name": "Hebrew (modern)",
        "nativeName": "עברית"
      },
      {
        "iso639_1": "ar",
        "iso639_2": "ara",
        "name": "Arabic",
        "nativeName": "العربية"
      }
    ],
    "flag": "https://flagcdn.com/il.svg",
    "name": "Israel",
    "callingCodes": ["972"],
    "capital": "Jerusalem",
    "subregion": "Western Asia",
    "region": "Asia"
  },
  {
    "languages": [
      {
        "iso639_1": "it",
        "iso639_2": "ita",
        "name": "Italian",
        "nativeName": "Italiano"
      }
    ],
    "flag": "https://flagcdn.com/it.svg",
    "name": "Italy",
    "callingCodes": ["39"],
    "capital": "Rome",
    "subregion": "Southern Europe",
    "region": "Europe"
  },
  {
    "languages": [
      {
        "iso639_1": "en",
        "iso639_2": "eng",
        "name": "English",
        "nativeName": "English"
      }
    ],
    "flag": "https://flagcdn.com/jm.svg",
    "name": "Jamaica",
    "callingCodes": ["1"],
    "capital": "Kingston",
    "subregion": "Caribbean",
    "region": "Americas"
  },
  {
    "languages": [
      {
        "iso639_1": "ja",
        "iso639_2": "jpn",
        "name": "Japanese",
        "nativeName": "日本語 (にほんご)"
      }
    ],
    "flag": "https://flagcdn.com/jp.svg",
    "name": "Japan",
    "callingCodes": ["81"],
    "capital": "Tokyo",
    "subregion": "Eastern Asia",
    "region": "Asia"
  },
  {
    "languages": [
      {
        "iso639_1": "en",
        "iso639_2": "eng",
        "name": "English",
        "nativeName": "English"
      },
      {
        "iso639_1": "fr",
        "iso639_2": "fra",
        "name": "French",
        "nativeName": "français"
      }
    ],
    "flag": "https://flagcdn.com/je.svg",
    "name": "Jersey",
    "callingCodes": ["44"],
    "capital": "Saint Helier",
    "subregion": "Northern Europe",
    "region": "Europe"
  },
  {
    "languages": [
      {
        "iso639_1": "ar",
        "iso639_2": "ara",
        "name": "Arabic",
        "nativeName": "العربية"
      }
    ],
    "flag": "https://flagcdn.com/jo.svg",
    "name": "Jordan",
    "callingCodes": ["962"],
    "capital": "Amman",
    "subregion": "Western Asia",
    "region": "Asia"
  },
  {
    "languages": [
      {
        "iso639_1": "kk",
        "iso639_2": "kaz",
        "name": "Kazakh",
        "nativeName": "қазақ тілі"
      },
      {
        "iso639_1": "ru",
        "iso639_2": "rus",
        "name": "Russian",
        "nativeName": "Русский"
      }
    ],
    "flag": "https://flagcdn.com/kz.svg",
    "name": "Kazakhstan",
    "callingCodes": ["76", "77"],
    "capital": "Nur-Sultan",
    "subregion": "Central Asia",
    "region": "Asia"
  },
  {
    "languages": [
      {
        "iso639_1": "en",
        "iso639_2": "eng",
        "name": "English",
        "nativeName": "English"
      },
      {
        "iso639_1": "sw",
        "iso639_2": "swa",
        "name": "Swahili",
        "nativeName": "Kiswahili"
      }
    ],
    "flag": "https://flagcdn.com/ke.svg",
    "name": "Kenya",
    "callingCodes": ["254"],
    "capital": "Nairobi",
    "subregion": "Eastern Africa",
    "region": "Africa"
  },
  {
    "languages": [
      {
        "iso639_1": "en",
        "iso639_2": "eng",
        "name": "English",
        "nativeName": "English"
      }
    ],
    "flag": "https://flagcdn.com/ki.svg",
    "name": "Kiribati",
    "callingCodes": ["686"],
    "capital": "South Tarawa",
    "subregion": "Micronesia",
    "region": "Oceania"
  },
  {
    "languages": [
      {
        "iso639_1": "ar",
        "iso639_2": "ara",
        "name": "Arabic",
        "nativeName": "العربية"
      }
    ],
    "flag": "https://flagcdn.com/kw.svg",
    "name": "Kuwait",
    "callingCodes": ["965"],
    "capital": "Kuwait City",
    "subregion": "Western Asia",
    "region": "Asia"
  },
  {
    "languages": [
      {
        "iso639_1": "ky",
        "iso639_2": "kir",
        "name": "Kyrgyz",
        "nativeName": "Кыргызча"
      },
      {
        "iso639_1": "ru",
        "iso639_2": "rus",
        "name": "Russian",
        "nativeName": "Русский"
      }
    ],
    "flag": "https://flagcdn.com/kg.svg",
    "name": "Kyrgyzstan",
    "callingCodes": ["996"],
    "capital": "Bishkek",
    "subregion": "Central Asia",
    "region": "Asia"
  },
  {
    "languages": [
      {
        "iso639_1": "lo",
        "iso639_2": "lao",
        "name": "Lao",
        "nativeName": "ພາສາລາວ"
      }
    ],
    "flag": "https://flagcdn.com/la.svg",
    "name": "Lao People's Democratic Republic",
    "callingCodes": ["856"],
    "capital": "Vientiane",
    "subregion": "South-Eastern Asia",
    "region": "Asia"
  },
  {
    "languages": [
      {
        "iso639_1": "lv",
        "iso639_2": "lav",
        "name": "Latvian",
        "nativeName": "latviešu valoda"
      }
    ],
    "flag": "https://flagcdn.com/lv.svg",
    "name": "Latvia",
    "callingCodes": ["371"],
    "capital": "Riga",
    "subregion": "Northern Europe",
    "region": "Europe"
  },
  {
    "languages": [
      {
        "iso639_1": "ar",
        "iso639_2": "ara",
        "name": "Arabic",
        "nativeName": "العربية"
      },
      {
        "iso639_1": "fr",
        "iso639_2": "fra",
        "name": "French",
        "nativeName": "français"
      }
    ],
    "flag": "https://flagcdn.com/lb.svg",
    "name": "Lebanon",
    "callingCodes": ["961"],
    "capital": "Beirut",
    "subregion": "Western Asia",
    "region": "Asia"
  },
  {
    "languages": [
      {
        "iso639_1": "en",
        "iso639_2": "eng",
        "name": "English",
        "nativeName": "English"
      },
      {
        "iso639_1": "st",
        "iso639_2": "sot",
        "name": "Southern Sotho",
        "nativeName": "Sesotho"
      }
    ],
    "flag": "https://flagcdn.com/ls.svg",
    "name": "Lesotho",
    "callingCodes": ["266"],
    "capital": "Maseru",
    "subregion": "Southern Africa",
    "region": "Africa"
  },
  {
    "languages": [
      {
        "iso639_1": "en",
        "iso639_2": "eng",
        "name": "English",
        "nativeName": "English"
      }
    ],
    "flag": "https://flagcdn.com/lr.svg",
    "name": "Liberia",
    "callingCodes": ["231"],
    "capital": "Monrovia",
    "subregion": "Western Africa",
    "region": "Africa"
  },
  {
    "languages": [
      {
        "iso639_1": "ar",
        "iso639_2": "ara",
        "name": "Arabic",
        "nativeName": "العربية"
      }
    ],
    "flag": "https://flagcdn.com/ly.svg",
    "name": "Libya",
    "callingCodes": ["218"],
    "capital": "Tripoli",
    "subregion": "Northern Africa",
    "region": "Africa"
  },
  {
    "languages": [
      {
        "iso639_1": "de",
        "iso639_2": "deu",
        "name": "German",
        "nativeName": "Deutsch"
      }
    ],
    "flag": "https://flagcdn.com/li.svg",
    "name": "Liechtenstein",
    "callingCodes": ["423"],
    "capital": "Vaduz",
    "subregion": "Central Europe",
    "region": "Europe"
  },
  {
    "languages": [
      {
        "iso639_1": "lt",
        "iso639_2": "lit",
        "name": "Lithuanian",
        "nativeName": "lietuvių kalba"
      }
    ],
    "flag": "https://flagcdn.com/lt.svg",
    "name": "Lithuania",
    "callingCodes": ["370"],
    "capital": "Vilnius",
    "subregion": "Northern Europe",
    "region": "Europe"
  },
  {
    "languages": [
      {
        "iso639_1": "fr",
        "iso639_2": "fra",
        "name": "French",
        "nativeName": "français"
      },
      {
        "iso639_1": "de",
        "iso639_2": "deu",
        "name": "German",
        "nativeName": "Deutsch"
      },
      {
        "iso639_1": "lb",
        "iso639_2": "ltz",
        "name": "Luxembourgish",
        "nativeName": "Lëtzebuergesch"
      }
    ],
    "flag": "https://flagcdn.com/lu.svg",
    "name": "Luxembourg",
    "callingCodes": ["352"],
    "capital": "Luxembourg",
    "subregion": "Western Europe",
    "region": "Europe"
  },
  {
    "languages": [
      {
        "iso639_1": "zh",
        "iso639_2": "zho",
        "name": "Chinese",
        "nativeName": "中文 (Zhōngwén)"
      },
      {
        "iso639_1": "pt",
        "iso639_2": "por",
        "name": "Portuguese",
        "nativeName": "Português"
      }
    ],
    "flag": "https://flagcdn.com/mo.svg",
    "name": "Macao",
    "callingCodes": ["853"],
    "capital": "",
    "subregion": "Eastern Asia",
    "region": "Asia"
  },
  {
    "languages": [
      {
        "iso639_1": "mk",
        "iso639_2": "mkd",
        "name": "Macedonian",
        "nativeName": "македонски јазик"
      }
    ],
    "flag": "https://flagcdn.com/mk.svg",
    "name": "North Macedonia",
    "callingCodes": ["389"],
    "capital": "Skopje",
    "subregion": "Southern Europe",
    "region": "Europe"
  },
  {
    "languages": [
      {
        "iso639_1": "fr",
        "iso639_2": "fra",
        "name": "French",
        "nativeName": "français"
      },
      {
        "iso639_1": "mg",
        "iso639_2": "mlg",
        "name": "Malagasy",
        "nativeName": "fiteny malagasy"
      }
    ],
    "flag": "https://flagcdn.com/mg.svg",
    "name": "Madagascar",
    "callingCodes": ["261"],
    "capital": "Antananarivo",
    "subregion": "Eastern Africa",
    "region": "Africa"
  },
  {
    "languages": [
      {
        "iso639_1": "en",
        "iso639_2": "eng",
        "name": "English",
        "nativeName": "English"
      },
      {
        "iso639_1": "ny",
        "iso639_2": "nya",
        "name": "Chichewa",
        "nativeName": "chiCheŵa"
      }
    ],
    "flag": "https://flagcdn.com/mw.svg",
    "name": "Malawi",
    "callingCodes": ["265"],
    "capital": "Lilongwe",
    "subregion": "Eastern Africa",
    "region": "Africa"
  },
  {
    "languages": [
      {
        "iso639_1": "ms",
        "iso639_2": "zsm",
        "name": "Malaysian",
        "nativeName": "بهاس مليسيا"
      }
    ],
    "flag": "https://flagcdn.com/my.svg",
    "name": "Malaysia",
    "callingCodes": ["60"],
    "capital": "Kuala Lumpur",
    "subregion": "South-Eastern Asia",
    "region": "Asia"
  },
  {
    "languages": [
      {
        "iso639_1": "dv",
        "iso639_2": "div",
        "name": "Divehi",
        "nativeName": "ދިވެހި"
      }
    ],
    "flag": "https://flagcdn.com/mv.svg",
    "name": "Maldives",
    "callingCodes": ["960"],
    "capital": "Malé",
    "subregion": "Southern Asia",
    "region": "Asia"
  },
  {
    "languages": [
      {
        "iso639_1": "fr",
        "iso639_2": "fra",
        "name": "French",
        "nativeName": "français"
      }
    ],
    "flag": "https://flagcdn.com/ml.svg",
    "name": "Mali",
    "callingCodes": ["223"],
    "capital": "Bamako",
    "subregion": "Western Africa",
    "region": "Africa"
  },
  {
    "languages": [
      {
        "iso639_1": "mt",
        "iso639_2": "mlt",
        "name": "Maltese",
        "nativeName": "Malti"
      },
      {
        "iso639_1": "en",
        "iso639_2": "eng",
        "name": "English",
        "nativeName": "English"
      }
    ],
    "flag": "https://flagcdn.com/mt.svg",
    "name": "Malta",
    "callingCodes": ["356"],
    "capital": "Valletta",
    "subregion": "Southern Europe",
    "region": "Europe"
  },
  {
    "languages": [
      {
        "iso639_1": "en",
        "iso639_2": "eng",
        "name": "English",
        "nativeName": "English"
      },
      {
        "iso639_1": "mh",
        "iso639_2": "mah",
        "name": "Marshallese",
        "nativeName": "Kajin M̧ajeļ"
      }
    ],
    "flag": "https://flagcdn.com/mh.svg",
    "name": "Marshall Islands",
    "callingCodes": ["692"],
    "capital": "Majuro",
    "subregion": "Micronesia",
    "region": "Oceania"
  },
  {
    "languages": [
      {
        "iso639_1": "fr",
        "iso639_2": "fra",
        "name": "French",
        "nativeName": "français"
      }
    ],
    "flag": "https://flagcdn.com/mq.svg",
    "name": "Martinique",
    "callingCodes": ["596"],
    "capital": "Fort-de-France",
    "subregion": "Caribbean",
    "region": "Americas"
  },
  {
    "languages": [
      {
        "iso639_1": "ar",
        "iso639_2": "ara",
        "name": "Arabic",
        "nativeName": "العربية"
      }
    ],
    "flag": "https://flagcdn.com/mr.svg",
    "name": "Mauritania",
    "callingCodes": ["222"],
    "capital": "Nouakchott",
    "subregion": "Western Africa",
    "region": "Africa"
  },
  {
    "languages": [
      {
        "iso639_1": "en",
        "iso639_2": "eng",
        "name": "English",
        "nativeName": "English"
      }
    ],
    "flag": "https://flagcdn.com/mu.svg",
    "name": "Mauritius",
    "callingCodes": ["230"],
    "capital": "Port Louis",
    "subregion": "Eastern Africa",
    "region": "Africa"
  },
  {
    "languages": [
      {
        "iso639_1": "fr",
        "iso639_2": "fra",
        "name": "French",
        "nativeName": "français"
      }
    ],
    "flag": "https://flagcdn.com/yt.svg",
    "name": "Mayotte",
    "callingCodes": ["262"],
    "capital": "Mamoudzou",
    "subregion": "Eastern Africa",
    "region": "Africa"
  },
  {
    "languages": [
      {
        "iso639_1": "es",
        "iso639_2": "spa",
        "name": "Spanish",
        "nativeName": "Español"
      }
    ],
    "flag": "https://flagcdn.com/mx.svg",
    "name": "Mexico",
    "callingCodes": ["52"],
    "capital": "Mexico City",
    "subregion": "North America",
    "region": "Americas"
  },
  {
    "languages": [
      {
        "iso639_1": "en",
        "iso639_2": "eng",
        "name": "English",
        "nativeName": "English"
      }
    ],
    "flag": "https://flagcdn.com/fm.svg",
    "name": "Micronesia (Federated States of)",
    "callingCodes": ["691"],
    "capital": "Palikir",
    "subregion": "Micronesia",
    "region": "Oceania"
  },
  {
    "languages": [
      {
        "iso639_1": "ro",
        "iso639_2": "ron",
        "name": "Romanian",
        "nativeName": "Română"
      }
    ],
    "flag": "https://flagcdn.com/md.svg",
    "name": "Moldova (Republic of)",
    "callingCodes": ["373"],
    "capital": "Chișinău",
    "subregion": "Eastern Europe",
    "region": "Europe"
  },
  {
    "languages": [
      {
        "iso639_1": "fr",
        "iso639_2": "fra",
        "name": "French",
        "nativeName": "français"
      }
    ],
    "flag": "https://flagcdn.com/mc.svg",
    "name": "Monaco",
    "callingCodes": ["377"],
    "capital": "Monaco",
    "subregion": "Western Europe",
    "region": "Europe"
  },
  {
    "languages": [
      {
        "iso639_1": "mn",
        "iso639_2": "mon",
        "name": "Mongolian",
        "nativeName": "Монгол хэл"
      }
    ],
    "flag": "https://flagcdn.com/mn.svg",
    "name": "Mongolia",
    "callingCodes": ["976"],
    "capital": "Ulan Bator",
    "subregion": "Eastern Asia",
    "region": "Asia"
  },
  {
    "languages": [
      {
        "iso639_1": "sr",
        "iso639_2": "srp",
        "name": "Serbian",
        "nativeName": "српски језик"
      },
      {
        "iso639_1": "bs",
        "iso639_2": "bos",
        "name": "Bosnian",
        "nativeName": "bosanski jezik"
      },
      {
        "iso639_1": "sq",
        "iso639_2": "sqi",
        "name": "Albanian",
        "nativeName": "Shqip"
      },
      {
        "iso639_1": "hr",
        "iso639_2": "hrv",
        "name": "Croatian",
        "nativeName": "hrvatski jezik"
      }
    ],
    "flag": "https://flagcdn.com/me.svg",
    "name": "Montenegro",
    "callingCodes": ["382"],
    "capital": "Podgorica",
    "subregion": "Southern Europe",
    "region": "Europe"
  },
  {
    "languages": [
      {
        "iso639_1": "en",
        "iso639_2": "eng",
        "name": "English",
        "nativeName": "English"
      }
    ],
    "flag": "https://flagcdn.com/ms.svg",
    "name": "Montserrat",
    "callingCodes": ["1"],
    "capital": "Plymouth",
    "subregion": "Caribbean",
    "region": "Americas"
  },
  {
    "languages": [
      {
        "iso639_1": "ar",
        "iso639_2": "ara",
        "name": "Arabic",
        "nativeName": "العربية"
      }
    ],
    "flag": "https://flagcdn.com/ma.svg",
    "name": "Morocco",
    "callingCodes": ["212"],
    "capital": "Rabat",
    "subregion": "Northern Africa",
    "region": "Africa"
  },
  {
    "languages": [
      {
        "iso639_1": "pt",
        "iso639_2": "por",
        "name": "Portuguese",
        "nativeName": "Português"
      }
    ],
    "flag": "https://flagcdn.com/mz.svg",
    "name": "Mozambique",
    "callingCodes": ["258"],
    "capital": "Maputo",
    "subregion": "Eastern Africa",
    "region": "Africa"
  },
  {
    "languages": [
      {
        "iso639_1": "my",
        "iso639_2": "mya",
        "name": "Burmese",
        "nativeName": "ဗမာစာ"
      }
    ],
    "flag": "https://flagcdn.com/mm.svg",
    "name": "Myanmar",
    "callingCodes": ["95"],
    "capital": "Naypyidaw",
    "subregion": "South-Eastern Asia",
    "region": "Asia"
  },
  {
    "languages": [
      {
        "iso639_1": "en",
        "iso639_2": "eng",
        "name": "English",
        "nativeName": "English"
      },
      {
        "iso639_1": "af",
        "iso639_2": "afr",
        "name": "Afrikaans",
        "nativeName": "Afrikaans"
      }
    ],
    "flag": "https://flagcdn.com/na.svg",
    "name": "Namibia",
    "callingCodes": ["264"],
    "capital": "Windhoek",
    "subregion": "Southern Africa",
    "region": "Africa"
  },
  {
    "languages": [
      {
        "iso639_1": "en",
        "iso639_2": "eng",
        "name": "English",
        "nativeName": "English"
      },
      {
        "iso639_1": "na",
        "iso639_2": "nau",
        "name": "Nauruan",
        "nativeName": "Dorerin Naoero"
      }
    ],
    "flag": "https://flagcdn.com/nr.svg",
    "name": "Nauru",
    "callingCodes": ["674"],
    "capital": "Yaren",
    "subregion": "Micronesia",
    "region": "Oceania"
  },
  {
    "languages": [
      {
        "iso639_1": "ne",
        "iso639_2": "nep",
        "name": "Nepali",
        "nativeName": "नेपाली"
      }
    ],
    "flag": "https://flagcdn.com/np.svg",
    "name": "Nepal",
    "callingCodes": ["977"],
    "capital": "Kathmandu",
    "subregion": "Southern Asia",
    "region": "Asia"
  },
  {
    "languages": [
      {
        "iso639_1": "nl",
        "iso639_2": "nld",
        "name": "Dutch",
        "nativeName": "Nederlands"
      }
    ],
    "flag": "https://flagcdn.com/nl.svg",
    "name": "Netherlands",
    "callingCodes": ["31"],
    "capital": "Amsterdam",
    "subregion": "Western Europe",
    "region": "Europe"
  },
  {
    "languages": [
      {
        "iso639_1": "fr",
        "iso639_2": "fra",
        "name": "French",
        "nativeName": "français"
      }
    ],
    "flag": "https://flagcdn.com/nc.svg",
    "name": "New Caledonia",
    "callingCodes": ["687"],
    "capital": "Nouméa",
    "subregion": "Melanesia",
    "region": "Oceania"
  },
  {
    "languages": [
      {
        "iso639_1": "en",
        "iso639_2": "eng",
        "name": "English",
        "nativeName": "English"
      },
      {
        "iso639_1": "mi",
        "iso639_2": "mri",
        "name": "Māori",
        "nativeName": "te reo Māori"
      }
    ],
    "flag": "https://flagcdn.com/nz.svg",
    "name": "New Zealand",
    "callingCodes": ["64"],
    "capital": "Wellington",
    "subregion": "Australia and New Zealand",
    "region": "Oceania"
  },
  {
    "languages": [
      {
        "iso639_1": "es",
        "iso639_2": "spa",
        "name": "Spanish",
        "nativeName": "Español"
      }
    ],
    "flag": "https://flagcdn.com/ni.svg",
    "name": "Nicaragua",
    "callingCodes": ["505"],
    "capital": "Managua",
    "subregion": "Central America",
    "region": "Americas"
  },
  {
    "languages": [
      {
        "iso639_1": "fr",
        "iso639_2": "fra",
        "name": "French",
        "nativeName": "français"
      }
    ],
    "flag": "https://flagcdn.com/ne.svg",
    "name": "Niger",
    "callingCodes": ["227"],
    "capital": "Niamey",
    "subregion": "Western Africa",
    "region": "Africa"
  },
  {
    "languages": [
      {
        "iso639_1": "en",
        "iso639_2": "eng",
        "name": "English",
        "nativeName": "English"
      }
    ],
    "flag": "https://flagcdn.com/ng.svg",
    "name": "Nigeria",
    "callingCodes": ["234"],
    "capital": "Abuja",
    "subregion": "Western Africa",
    "region": "Africa"
  },
  {
    "languages": [
      {
        "iso639_1": "en",
        "iso639_2": "eng",
        "name": "English",
        "nativeName": "English"
      }
    ],
    "flag": "https://flagcdn.com/nu.svg",
    "name": "Niue",
    "callingCodes": ["683"],
    "capital": "Alofi",
    "subregion": "Polynesia",
    "region": "Oceania"
  },
  {
    "languages": [
      {
        "iso639_1": "en",
        "iso639_2": "eng",
        "name": "English",
        "nativeName": "English"
      }
    ],
    "flag": "https://flagcdn.com/nf.svg",
    "name": "Norfolk Island",
    "callingCodes": ["672"],
    "capital": "Kingston",
    "subregion": "Australia and New Zealand",
    "region": "Oceania"
  },
  {
    "languages": [
      {
        "iso639_1": "ko",
        "iso639_2": "kor",
        "name": "Korean",
        "nativeName": "한국어"
      }
    ],
    "flag": "https://flagcdn.com/kp.svg",
    "name": "Korea (Democratic People's Republic of)",
    "callingCodes": ["850"],
    "capital": "Pyongyang",
    "subregion": "Eastern Asia",
    "region": "Asia"
  },
  {
    "languages": [
      {
        "iso639_1": "en",
        "iso639_2": "eng",
        "name": "English",
        "nativeName": "English"
      },
      {
        "iso639_1": "ch",
        "iso639_2": "cha",
        "name": "Chamorro",
        "nativeName": "Chamoru"
      }
    ],
    "flag": "https://flagcdn.com/mp.svg",
    "name": "Northern Mariana Islands",
    "callingCodes": ["1"],
    "capital": "Saipan",
    "subregion": "Micronesia",
    "region": "Oceania"
  },
  {
    "languages": [
      {
        "iso639_1": "no",
        "iso639_2": "nor",
        "name": "Norwegian",
        "nativeName": "Norsk"
      },
      {
        "iso639_1": "nb",
        "iso639_2": "nob",
        "name": "Norwegian Bokmål",
        "nativeName": "Norsk bokmål"
      },
      {
        "iso639_1": "nn",
        "iso639_2": "nno",
        "name": "Norwegian Nynorsk",
        "nativeName": "Norsk nynorsk"
      }
    ],
    "flag": "https://flagcdn.com/no.svg",
    "name": "Norway",
    "callingCodes": ["47"],
    "capital": "Oslo",
    "subregion": "Northern Europe",
    "region": "Europe"
  },
  {
    "languages": [
      {
        "iso639_1": "ar",
        "iso639_2": "ara",
        "name": "Arabic",
        "nativeName": "العربية"
      }
    ],
    "flag": "https://flagcdn.com/om.svg",
    "name": "Oman",
    "callingCodes": ["968"],
    "capital": "Muscat",
    "subregion": "Western Asia",
    "region": "Asia"
  },
  {
    "languages": [
      {
        "iso639_1": "ur",
        "iso639_2": "urd",
        "name": "Urdu",
        "nativeName": "اردو"
      },
      {
        "iso639_1": "en",
        "iso639_2": "eng",
        "name": "English",
        "nativeName": "English"
      }
    ],
    "flag": "https://flagcdn.com/pk.svg",
    "name": "Pakistan",
    "callingCodes": ["92"],
    "capital": "Islamabad",
    "subregion": "Southern Asia",
    "region": "Asia"
  },
  {
    "languages": [
      {
        "iso639_1": "en",
        "iso639_2": "eng",
        "name": "English",
        "nativeName": "English"
      }
    ],
    "flag": "https://flagcdn.com/pw.svg",
    "name": "Palau",
    "callingCodes": ["680"],
    "capital": "Ngerulmud",
    "subregion": "Micronesia",
    "region": "Oceania"
  },
  {
    "languages": [
      {
        "iso639_1": "ar",
        "iso639_2": "ara",
        "name": "Arabic",
        "nativeName": "العربية"
      }
    ],
    "flag": "https://flagcdn.com/ps.svg",
    "name": "Palestine, State of",
    "callingCodes": ["970"],
    "capital": "Ramallah",
    "subregion": "Western Asia",
    "region": "Asia"
  },
  {
    "languages": [
      {
        "iso639_1": "es",
        "iso639_2": "spa",
        "name": "Spanish",
        "nativeName": "Español"
      }
    ],
    "flag": "https://flagcdn.com/pa.svg",
    "name": "Panama",
    "callingCodes": ["507"],
    "capital": "Panama City",
    "subregion": "Central America",
    "region": "Americas"
  },
  {
    "languages": [
      {
        "iso639_1": "en",
        "iso639_2": "eng",
        "name": "English",
        "nativeName": "English"
      }
    ],
    "flag": "https://flagcdn.com/pg.svg",
    "name": "Papua New Guinea",
    "callingCodes": ["675"],
    "capital": "Port Moresby",
    "subregion": "Melanesia",
    "region": "Oceania"
  },
  {
    "languages": [
      {
        "iso639_1": "es",
        "iso639_2": "spa",
        "name": "Spanish",
        "nativeName": "Español"
      },
      {
        "iso639_1": "gn",
        "iso639_2": "grn",
        "name": "Guaraní",
        "nativeName": "Avañe'ẽ"
      }
    ],
    "flag": "https://flagcdn.com/py.svg",
    "name": "Paraguay",
    "callingCodes": ["595"],
    "capital": "Asunción",
    "subregion": "South America",
    "region": "Americas"
  },
  {
    "languages": [
      {
        "iso639_1": "es",
        "iso639_2": "spa",
        "name": "Spanish",
        "nativeName": "Español"
      }
    ],
    "flag": "https://flagcdn.com/pe.svg",
    "name": "Peru",
    "callingCodes": ["51"],
    "capital": "Lima",
    "subregion": "South America",
    "region": "Americas"
  },
  {
    "languages": [
      {
        "iso639_1": "en",
        "iso639_2": "eng",
        "name": "English",
        "nativeName": "English"
      }
    ],
    "flag": "https://flagcdn.com/ph.svg",
    "name": "Philippines",
    "callingCodes": ["63"],
    "capital": "Manila",
    "subregion": "South-Eastern Asia",
    "region": "Asia"
  },
  {
    "languages": [
      {
        "iso639_1": "en",
        "iso639_2": "eng",
        "name": "English",
        "nativeName": "English"
      }
    ],
    "flag": "https://flagcdn.com/pn.svg",
    "name": "Pitcairn",
    "callingCodes": ["64"],
    "capital": "Adamstown",
    "subregion": "Polynesia",
    "region": "Oceania"
  },
  {
    "languages": [
      {
        "iso639_1": "pl",
        "iso639_2": "pol",
        "name": "Polish",
        "nativeName": "język polski"
      }
    ],
    "flag": "https://flagcdn.com/pl.svg",
    "name": "Poland",
    "callingCodes": ["48"],
    "capital": "Warsaw",
    "subregion": "Central Europe",
    "region": "Europe"
  },
  {
    "languages": [
      {
        "iso639_1": "pt",
        "iso639_2": "por",
        "name": "Portuguese",
        "nativeName": "Português"
      }
    ],
    "flag": "https://flagcdn.com/pt.svg",
    "name": "Portugal",
    "callingCodes": ["351"],
    "capital": "Lisbon",
    "subregion": "Southern Europe",
    "region": "Europe"
  },
  {
    "languages": [
      {
        "iso639_1": "es",
        "iso639_2": "spa",
        "name": "Spanish",
        "nativeName": "Español"
      },
      {
        "iso639_1": "en",
        "iso639_2": "eng",
        "name": "English",
        "nativeName": "English"
      }
    ],
    "flag": "https://flagcdn.com/pr.svg",
    "name": "Puerto Rico",
    "callingCodes": ["1"],
    "capital": "San Juan",
    "subregion": "Caribbean",
    "region": "Americas"
  },
  {
    "languages": [
      {
        "iso639_1": "ar",
        "iso639_2": "ara",
        "name": "Arabic",
        "nativeName": "العربية"
      }
    ],
    "flag": "https://flagcdn.com/qa.svg",
    "name": "Qatar",
    "callingCodes": ["974"],
    "capital": "Doha",
    "subregion": "Western Asia",
    "region": "Asia"
  },
  {
    "languages": [
      {
        "iso639_1": "sq",
        "iso639_2": "sqi",
        "name": "Albanian",
        "nativeName": "Shqip"
      },
      {
        "iso639_1": "sr",
        "iso639_2": "srp",
        "name": "Serbian",
        "nativeName": "српски језик"
      }
    ],
    "flag": "https://flagcdn.com/xk.svg",
    "name": "Republic of Kosovo",
    "callingCodes": ["383"],
    "capital": "Pristina",
    "subregion": "Eastern Europe",
    "region": "Europe"
  },
  {
    "languages": [
      {
        "iso639_1": "fr",
        "iso639_2": "fra",
        "name": "French",
        "nativeName": "français"
      }
    ],
    "flag": "https://flagcdn.com/re.svg",
    "name": "Réunion",
    "callingCodes": ["262"],
    "capital": "Saint-Denis",
    "subregion": "Eastern Africa",
    "region": "Africa"
  },
  {
    "languages": [
      {
        "iso639_1": "ro",
        "iso639_2": "ron",
        "name": "Romanian",
        "nativeName": "Română"
      }
    ],
    "flag": "https://flagcdn.com/ro.svg",
    "name": "Romania",
    "callingCodes": ["40"],
    "capital": "Bucharest",
    "subregion": "Eastern Europe",
    "region": "Europe"
  },
  {
    "languages": [
      {
        "iso639_1": "ru",
        "iso639_2": "rus",
        "name": "Russian",
        "nativeName": "Русский"
      }
    ],
    "flag": "https://flagcdn.com/ru.svg",
    "name": "Russian Federation",
    "callingCodes": ["7"],
    "capital": "Moscow",
    "subregion": "Eastern Europe",
    "region": "Europe"
  },
  {
    "languages": [
      {
        "iso639_1": "rw",
        "iso639_2": "kin",
        "name": "Kinyarwanda",
        "nativeName": "Ikinyarwanda"
      },
      {
        "iso639_1": "en",
        "iso639_2": "eng",
        "name": "English",
        "nativeName": "English"
      },
      {
        "iso639_1": "fr",
        "iso639_2": "fra",
        "name": "French",
        "nativeName": "français"
      }
    ],
    "flag": "https://flagcdn.com/rw.svg",
    "name": "Rwanda",
    "callingCodes": ["250"],
    "capital": "Kigali",
    "subregion": "Eastern Africa",
    "region": "Africa"
  },
  {
    "languages": [
      {
        "iso639_1": "fr",
        "iso639_2": "fra",
        "name": "French",
        "nativeName": "français"
      }
    ],
    "flag": "https://flagcdn.com/bl.svg",
    "name": "Saint Barthélemy",
    "callingCodes": ["590"],
    "capital": "Gustavia",
    "subregion": "Caribbean",
    "region": "Americas"
  },
  {
    "languages": [
      {
        "iso639_1": "en",
        "iso639_2": "eng",
        "name": "English",
        "nativeName": "English"
      }
    ],
    "flag": "https://flagcdn.com/sh.svg",
    "name": "Saint Helena, Ascension and Tristan da Cunha",
    "callingCodes": ["290"],
    "capital": "Jamestown",
    "subregion": "Western Africa",
    "region": "Africa"
  },
  {
    "languages": [
      {
        "iso639_1": "en",
        "iso639_2": "eng",
        "name": "English",
        "nativeName": "English"
      }
    ],
    "flag": "https://flagcdn.com/kn.svg",
    "name": "Saint Kitts and Nevis",
    "callingCodes": ["1"],
    "capital": "Basseterre",
    "subregion": "Caribbean",
    "region": "Americas"
  },
  {
    "languages": [
      {
        "iso639_1": "en",
        "iso639_2": "eng",
        "name": "English",
        "nativeName": "English"
      }
    ],
    "flag": "https://flagcdn.com/lc.svg",
    "name": "Saint Lucia",
    "callingCodes": ["1"],
    "capital": "Castries",
    "subregion": "Caribbean",
    "region": "Americas"
  },
  {
    "languages": [
      {
        "iso639_1": "en",
        "iso639_2": "eng",
        "name": "English",
        "nativeName": "English"
      },
      {
        "iso639_1": "fr",
        "iso639_2": "fra",
        "name": "French",
        "nativeName": "français"
      },
      {
        "iso639_1": "nl",
        "iso639_2": "nld",
        "name": "Dutch",
        "nativeName": "Nederlands"
      }
    ],
    "flag": "https://flagcdn.com/mf.svg",
    "name": "Saint Martin (French part)",
    "callingCodes": ["590"],
    "capital": "Marigot",
    "subregion": "Caribbean",
    "region": "Americas"
  },
  {
    "languages": [
      {
        "iso639_1": "fr",
        "iso639_2": "fra",
        "name": "French",
        "nativeName": "français"
      }
    ],
    "flag": "https://flagcdn.com/pm.svg",
    "name": "Saint Pierre and Miquelon",
    "callingCodes": ["508"],
    "capital": "Saint-Pierre",
    "subregion": "Northern America",
    "region": "Americas"
  },
  {
    "languages": [
      {
        "iso639_1": "en",
        "iso639_2": "eng",
        "name": "English",
        "nativeName": "English"
      }
    ],
    "flag": "https://flagcdn.com/vc.svg",
    "name": "Saint Vincent and the Grenadines",
    "callingCodes": ["1"],
    "capital": "Kingstown",
    "subregion": "Caribbean",
    "region": "Americas"
  },
  {
    "languages": [
      {
        "iso639_1": "sm",
        "iso639_2": "smo",
        "name": "Samoan",
        "nativeName": "gagana fa'a Samoa"
      },
      {
        "iso639_1": "en",
        "iso639_2": "eng",
        "name": "English",
        "nativeName": "English"
      }
    ],
    "flag": "https://flagcdn.com/ws.svg",
    "name": "Samoa",
    "callingCodes": ["685"],
    "capital": "Apia",
    "subregion": "Polynesia",
    "region": "Oceania"
  },
  {
    "languages": [
      {
        "iso639_1": "it",
        "iso639_2": "ita",
        "name": "Italian",
        "nativeName": "Italiano"
      }
    ],
    "flag": "https://flagcdn.com/sm.svg",
    "name": "San Marino",
    "callingCodes": ["378"],
    "capital": "City of San Marino",
    "subregion": "Southern Europe",
    "region": "Europe"
  },
  {
    "languages": [
      {
        "iso639_1": "pt",
        "iso639_2": "por",
        "name": "Portuguese",
        "nativeName": "Português"
      }
    ],
    "flag": "https://flagcdn.com/st.svg",
    "name": "Sao Tome and Principe",
    "callingCodes": ["239"],
    "capital": "São Tomé",
    "subregion": "Middle Africa",
    "region": "Africa"
  },
  {
    "languages": [
      {
        "iso639_1": "ar",
        "iso639_2": "ara",
        "name": "Arabic",
        "nativeName": "العربية"
      }
    ],
    "flag": "https://flagcdn.com/sa.svg",
    "name": "Saudi Arabia",
    "callingCodes": ["966"],
    "capital": "Riyadh",
    "subregion": "Western Asia",
    "region": "Asia"
  },
  {
    "languages": [
      {
        "iso639_1": "fr",
        "iso639_2": "fra",
        "name": "French",
        "nativeName": "français"
      }
    ],
    "flag": "https://flagcdn.com/sn.svg",
    "name": "Senegal",
    "callingCodes": ["221"],
    "capital": "Dakar",
    "subregion": "Western Africa",
    "region": "Africa"
  },
  {
    "languages": [
      {
        "iso639_1": "sr",
        "iso639_2": "srp",
        "name": "Serbian",
        "nativeName": "српски језик"
      }
    ],
    "flag": "https://flagcdn.com/rs.svg",
    "name": "Serbia",
    "callingCodes": ["381"],
    "capital": "Belgrade",
    "subregion": "Southern Europe",
    "region": "Europe"
  },
  {
    "languages": [
      {
        "iso639_1": "fr",
        "iso639_2": "fra",
        "name": "French",
        "nativeName": "français"
      },
      {
        "iso639_1": "en",
        "iso639_2": "eng",
        "name": "English",
        "nativeName": "English"
      }
    ],
    "flag": "https://flagcdn.com/sc.svg",
    "name": "Seychelles",
    "callingCodes": ["248"],
    "capital": "Victoria",
    "subregion": "Eastern Africa",
    "region": "Africa"
  },
  {
    "languages": [
      {
        "iso639_1": "en",
        "iso639_2": "eng",
        "name": "English",
        "nativeName": "English"
      }
    ],
    "flag": "https://flagcdn.com/sl.svg",
    "name": "Sierra Leone",
    "callingCodes": ["232"],
    "capital": "Freetown",
    "subregion": "Western Africa",
    "region": "Africa"
  },
  {
    "languages": [
      {
        "iso639_1": "en",
        "iso639_2": "eng",
        "name": "English",
        "nativeName": "English"
      },
      {
        "iso639_1": "ms",
        "iso639_2": "msa",
        "name": "Malay",
        "nativeName": "bahasa Melayu"
      },
      {
        "iso639_1": "ta",
        "iso639_2": "tam",
        "name": "Tamil",
        "nativeName": "தமிழ்"
      },
      {
        "iso639_1": "zh",
        "iso639_2": "zho",
        "name": "Chinese",
        "nativeName": "中文 (Zhōngwén)"
      }
    ],
    "flag": "https://flagcdn.com/sg.svg",
    "name": "Singapore",
    "callingCodes": ["65"],
    "capital": "Singapore",
    "subregion": "South-Eastern Asia",
    "region": "Asia"
  },
  {
    "languages": [
      {
        "iso639_1": "nl",
        "iso639_2": "nld",
        "name": "Dutch",
        "nativeName": "Nederlands"
      },
      {
        "iso639_1": "en",
        "iso639_2": "eng",
        "name": "English",
        "nativeName": "English"
      }
    ],
    "flag": "https://flagcdn.com/sx.svg",
    "name": "Sint Maarten (Dutch part)",
    "callingCodes": ["1"],
    "capital": "Philipsburg",
    "subregion": "Caribbean",
    "region": "Americas"
  },
  {
    "languages": [
      {
        "iso639_1": "sk",
        "iso639_2": "slk",
        "name": "Slovak",
        "nativeName": "slovenčina"
      }
    ],
    "flag": "https://flagcdn.com/sk.svg",
    "name": "Slovakia",
    "callingCodes": ["421"],
    "capital": "Bratislava",
    "subregion": "Central Europe",
    "region": "Europe"
  },
  {
    "languages": [
      {
        "iso639_1": "sl",
        "iso639_2": "slv",
        "name": "Slovene",
        "nativeName": "slovenski jezik"
      }
    ],
    "flag": "https://flagcdn.com/si.svg",
    "name": "Slovenia",
    "callingCodes": ["386"],
    "capital": "Ljubljana",
    "subregion": "Southern Europe",
    "region": "Europe"
  },
  {
    "languages": [
      {
        "iso639_1": "en",
        "iso639_2": "eng",
        "name": "English",
        "nativeName": "English"
      }
    ],
    "flag": "https://flagcdn.com/sb.svg",
    "name": "Solomon Islands",
    "callingCodes": ["677"],
    "capital": "Honiara",
    "subregion": "Melanesia",
    "region": "Oceania"
  },
  {
    "languages": [
      {
        "iso639_1": "so",
        "iso639_2": "som",
        "name": "Somali",
        "nativeName": "Soomaaliga"
      },
      {
        "iso639_1": "ar",
        "iso639_2": "ara",
        "name": "Arabic",
        "nativeName": "العربية"
      }
    ],
    "flag": "https://flagcdn.com/so.svg",
    "name": "Somalia",
    "callingCodes": ["252"],
    "capital": "Mogadishu",
    "subregion": "Eastern Africa",
    "region": "Africa"
  },
  {
    "languages": [
      {
        "iso639_1": "af",
        "iso639_2": "afr",
        "name": "Afrikaans",
        "nativeName": "Afrikaans"
      },
      {
        "iso639_1": "en",
        "iso639_2": "eng",
        "name": "English",
        "nativeName": "English"
      },
      {
        "iso639_1": "nr",
        "iso639_2": "nbl",
        "name": "Southern Ndebele",
        "nativeName": "isiNdebele"
      },
      {
        "iso639_1": "st",
        "iso639_2": "sot",
        "name": "Southern Sotho",
        "nativeName": "Sesotho"
      },
      {
        "iso639_1": "ss",
        "iso639_2": "ssw",
        "name": "Swati",
        "nativeName": "SiSwati"
      },
      {
        "iso639_1": "tn",
        "iso639_2": "tsn",
        "name": "Tswana",
        "nativeName": "Setswana"
      },
      {
        "iso639_1": "ts",
        "iso639_2": "tso",
        "name": "Tsonga",
        "nativeName": "Xitsonga"
      },
      {
        "iso639_1": "ve",
        "iso639_2": "ven",
        "name": "Venda",
        "nativeName": "Tshivenḓa"
      },
      {
        "iso639_1": "xh",
        "iso639_2": "xho",
        "name": "Xhosa",
        "nativeName": "isiXhosa"
      },
      {
        "iso639_1": "zu",
        "iso639_2": "zul",
        "name": "Zulu",
        "nativeName": "isiZulu"
      }
    ],
    "flag": "https://flagcdn.com/za.svg",
    "name": "South Africa",
    "callingCodes": ["27"],
    "capital": "Pretoria",
    "subregion": "Southern Africa",
    "region": "Africa"
  },
  {
    "languages": [
      {
        "iso639_1": "en",
        "iso639_2": "eng",
        "name": "English",
        "nativeName": "English"
      }
    ],
    "flag": "https://flagcdn.com/gs.svg",
    "name": "South Georgia and the South Sandwich Islands",
    "callingCodes": ["500"],
    "capital": "King Edward Point",
    "subregion": "South America",
    "region": "Americas"
  },
  {
    "languages": [
      {
        "iso639_1": "ko",
        "iso639_2": "kor",
        "name": "Korean",
        "nativeName": "한국어"
      }
    ],
    "flag": "https://flagcdn.com/kr.svg",
    "name": "Korea (Republic of)",
    "callingCodes": ["82"],
    "capital": "Seoul",
    "subregion": "Eastern Asia",
    "region": "Asia"
  },
  {
    "languages": [
      {
        "iso639_1": "es",
        "iso639_2": "spa",
        "name": "Spanish",
        "nativeName": "Español"
      }
    ],
    "flag": "https://flagcdn.com/es.svg",
    "name": "Spain",
    "callingCodes": ["34"],
    "capital": "Madrid",
    "subregion": "Southern Europe",
    "region": "Europe"
  },
  {
    "languages": [
      {
        "iso639_1": "si",
        "iso639_2": "sin",
        "name": "Sinhalese",
        "nativeName": "සිංහල"
      },
      {
        "iso639_1": "ta",
        "iso639_2": "tam",
        "name": "Tamil",
        "nativeName": "தமிழ்"
      }
    ],
    "flag": "https://flagcdn.com/lk.svg",
    "name": "Sri Lanka",
    "callingCodes": ["94"],
    "capital": "Sri Jayawardenepura Kotte",
    "subregion": "Southern Asia",
    "region": "Asia"
  },
  {
    "languages": [
      {
        "iso639_1": "ar",
        "iso639_2": "ara",
        "name": "Arabic",
        "nativeName": "العربية"
      },
      {
        "iso639_1": "en",
        "iso639_2": "eng",
        "name": "English",
        "nativeName": "English"
      }
    ],
    "flag": "https://flagcdn.com/sd.svg",
    "name": "Sudan",
    "callingCodes": ["249"],
    "capital": "Khartoum",
    "subregion": "Northern Africa",
    "region": "Africa"
  },
  {
    "languages": [
      {
        "iso639_1": "en",
        "iso639_2": "eng",
        "name": "English",
        "nativeName": "English"
      }
    ],
    "flag": "https://flagcdn.com/ss.svg",
    "name": "South Sudan",
    "callingCodes": ["211"],
    "capital": "Juba",
    "subregion": "Middle Africa",
    "region": "Africa"
  },
  {
    "languages": [
      {
        "iso639_1": "nl",
        "iso639_2": "nld",
        "name": "Dutch",
        "nativeName": "Nederlands"
      }
    ],
    "flag": "https://flagcdn.com/sr.svg",
    "name": "Suriname",
    "callingCodes": ["597"],
    "capital": "Paramaribo",
    "subregion": "South America",
    "region": "Americas"
  },
  {
    "languages": [
      {
        "iso639_1": "no",
        "iso639_2": "nor",
        "name": "Norwegian",
        "nativeName": "Norsk"
      }
    ],
    "flag": "https://flagcdn.com/sj.svg",
    "name": "Svalbard and Jan Mayen",
    "callingCodes": ["47"],
    "capital": "Longyearbyen",
    "subregion": "Northern Europe",
    "region": "Europe"
  },
  {
    "languages": [
      {
        "iso639_1": "en",
        "iso639_2": "eng",
        "name": "English",
        "nativeName": "English"
      },
      {
        "iso639_1": "ss",
        "iso639_2": "ssw",
        "name": "Swati",
        "nativeName": "SiSwati"
      }
    ],
    "flag": "https://flagcdn.com/sz.svg",
    "name": "Swaziland",
    "callingCodes": ["268"],
    "capital": "Mbabane",
    "subregion": "Southern Africa",
    "region": "Africa"
  },
  {
    "languages": [
      {
        "iso639_1": "sv",
        "iso639_2": "swe",
        "name": "Swedish",
        "nativeName": "svenska"
      }
    ],
    "flag": "https://flagcdn.com/se.svg",
    "name": "Sweden",
    "callingCodes": ["46"],
    "capital": "Stockholm",
    "subregion": "Northern Europe",
    "region": "Europe"
  },
  {
    "languages": [
      {
        "iso639_1": "de",
        "iso639_2": "deu",
        "name": "German",
        "nativeName": "Deutsch"
      },
      {
        "iso639_1": "fr",
        "iso639_2": "fra",
        "name": "French",
        "nativeName": "français"
      },
      {
        "iso639_1": "it",
        "iso639_2": "ita",
        "name": "Italian",
        "nativeName": "Italiano"
      },
      { "iso639_2": "roh", "name": "Romansh" }
    ],
    "flag": "https://flagcdn.com/ch.svg",
    "name": "Switzerland",
    "callingCodes": ["41"],
    "capital": "Bern",
    "subregion": "Central Europe",
    "region": "Europe"
  },
  {
    "languages": [
      {
        "iso639_1": "ar",
        "iso639_2": "ara",
        "name": "Arabic",
        "nativeName": "العربية"
      }
    ],
    "flag": "https://flagcdn.com/sy.svg",
    "name": "Syrian Arab Republic",
    "callingCodes": ["963"],
    "capital": "Damascus",
    "subregion": "Western Asia",
    "region": "Asia"
  },
  {
    "languages": [
      {
        "iso639_1": "zh",
        "iso639_2": "zho",
        "name": "Chinese",
        "nativeName": "中文 (Zhōngwén)"
      }
    ],
    "flag": "https://flagcdn.com/tw.svg",
    "name": "Taiwan",
    "callingCodes": ["886"],
    "capital": "Taipei",
    "subregion": "Eastern Asia",
    "region": "Asia"
  },
  {
    "languages": [
      {
        "iso639_1": "tg",
        "iso639_2": "tgk",
        "name": "Tajik",
        "nativeName": "тоҷикӣ"
      },
      {
        "iso639_1": "ru",
        "iso639_2": "rus",
        "name": "Russian",
        "nativeName": "Русский"
      }
    ],
    "flag": "https://flagcdn.com/tj.svg",
    "name": "Tajikistan",
    "callingCodes": ["992"],
    "capital": "Dushanbe",
    "subregion": "Central Asia",
    "region": "Asia"
  },
  {
    "languages": [
      {
        "iso639_1": "sw",
        "iso639_2": "swa",
        "name": "Swahili",
        "nativeName": "Kiswahili"
      },
      {
        "iso639_1": "en",
        "iso639_2": "eng",
        "name": "English",
        "nativeName": "English"
      }
    ],
    "flag": "https://flagcdn.com/tz.svg",
    "name": "Tanzania, United Republic of",
    "callingCodes": ["255"],
    "capital": "Dodoma",
    "subregion": "Eastern Africa",
    "region": "Africa"
  },
  {
    "languages": [
      {
        "iso639_1": "th",
        "iso639_2": "tha",
        "name": "Thai",
        "nativeName": "ไทย"
      }
    ],
    "flag": "https://flagcdn.com/th.svg",
    "name": "Thailand",
    "callingCodes": ["66"],
    "capital": "Bangkok",
    "subregion": "South-Eastern Asia",
    "region": "Asia"
  },
  {
    "languages": [
      {
        "iso639_1": "pt",
        "iso639_2": "por",
        "name": "Portuguese",
        "nativeName": "Português"
      }
    ],
    "flag": "https://flagcdn.com/tl.svg",
    "name": "Timor-Leste",
    "callingCodes": ["670"],
    "capital": "Dili",
    "subregion": "South-Eastern Asia",
    "region": "Asia"
  },
  {
    "languages": [
      {
        "iso639_1": "fr",
        "iso639_2": "fra",
        "name": "French",
        "nativeName": "français"
      }
    ],
    "flag": "https://flagcdn.com/tg.svg",
    "name": "Togo",
    "callingCodes": ["228"],
    "capital": "Lomé",
    "subregion": "Western Africa",
    "region": "Africa"
  },
  {
    "languages": [
      {
        "iso639_1": "en",
        "iso639_2": "eng",
        "name": "English",
        "nativeName": "English"
      }
    ],
    "flag": "https://flagcdn.com/tk.svg",
    "name": "Tokelau",
    "callingCodes": ["690"],
    "capital": "Fakaofo",
    "subregion": "Polynesia",
    "region": "Oceania"
  },
  {
    "languages": [
      {
        "iso639_1": "en",
        "iso639_2": "eng",
        "name": "English",
        "nativeName": "English"
      },
      {
        "iso639_1": "to",
        "iso639_2": "ton",
        "name": "Tonga (Tonga Islands)",
        "nativeName": "faka Tonga"
      }
    ],
    "flag": "https://flagcdn.com/to.svg",
    "name": "Tonga",
    "callingCodes": ["676"],
    "capital": "Nuku'alofa",
    "subregion": "Polynesia",
    "region": "Oceania"
  },
  {
    "languages": [
      {
        "iso639_1": "en",
        "iso639_2": "eng",
        "name": "English",
        "nativeName": "English"
      }
    ],
    "flag": "https://flagcdn.com/tt.svg",
    "name": "Trinidad and Tobago",
    "callingCodes": ["1"],
    "capital": "Port of Spain",
    "subregion": "Caribbean",
    "region": "Americas"
  },
  {
    "languages": [
      {
        "iso639_1": "ar",
        "iso639_2": "ara",
        "name": "Arabic",
        "nativeName": "العربية"
      }
    ],
    "flag": "https://flagcdn.com/tn.svg",
    "name": "Tunisia",
    "callingCodes": ["216"],
    "capital": "Tunis",
    "subregion": "Northern Africa",
    "region": "Africa"
  },
  {
    "languages": [
      {
        "iso639_1": "tr",
        "iso639_2": "tur",
        "name": "Turkish",
        "nativeName": "Türkçe"
      }
    ],
    "flag": "https://flagcdn.com/tr.svg",
    "name": "Turkey",
    "callingCodes": ["90"],
    "capital": "Ankara",
    "subregion": "Western Asia",
    "region": "Asia"
  },
  {
    "languages": [
      {
        "iso639_1": "tk",
        "iso639_2": "tuk",
        "name": "Turkmen",
        "nativeName": "Türkmen"
      },
      {
        "iso639_1": "ru",
        "iso639_2": "rus",
        "name": "Russian",
        "nativeName": "Русский"
      }
    ],
    "flag": "https://flagcdn.com/tm.svg",
    "name": "Turkmenistan",
    "callingCodes": ["993"],
    "capital": "Ashgabat",
    "subregion": "Central Asia",
    "region": "Asia"
  },
  {
    "languages": [
      {
        "iso639_1": "en",
        "iso639_2": "eng",
        "name": "English",
        "nativeName": "English"
      }
    ],
    "flag": "https://flagcdn.com/tc.svg",
    "name": "Turks and Caicos Islands",
    "callingCodes": ["1"],
    "capital": "Cockburn Town",
    "subregion": "Caribbean",
    "region": "Americas"
  },
  {
    "languages": [
      {
        "iso639_1": "en",
        "iso639_2": "eng",
        "name": "English",
        "nativeName": "English"
      }
    ],
    "flag": "https://flagcdn.com/tv.svg",
    "name": "Tuvalu",
    "callingCodes": ["688"],
    "capital": "Funafuti",
    "subregion": "Polynesia",
    "region": "Oceania"
  },
  {
    "languages": [
      {
        "iso639_1": "en",
        "iso639_2": "eng",
        "name": "English",
        "nativeName": "English"
      },
      {
        "iso639_1": "sw",
        "iso639_2": "swa",
        "name": "Swahili",
        "nativeName": "Kiswahili"
      }
    ],
    "flag": "https://flagcdn.com/ug.svg",
    "name": "Uganda",
    "callingCodes": ["256"],
    "capital": "Kampala",
    "subregion": "Eastern Africa",
    "region": "Africa"
  },
  {
    "languages": [
      {
        "iso639_1": "uk",
        "iso639_2": "ukr",
        "name": "Ukrainian",
        "nativeName": "Українська"
      }
    ],
    "flag": "https://flagcdn.com/ua.svg",
    "name": "Ukraine",
    "callingCodes": ["380"],
    "capital": "Kyiv",
    "subregion": "Eastern Europe",
    "region": "Europe"
  },
  {
    "languages": [
      {
        "iso639_1": "ar",
        "iso639_2": "ara",
        "name": "Arabic",
        "nativeName": "العربية"
      }
    ],
    "flag": "https://flagcdn.com/ae.svg",
    "name": "United Arab Emirates",
    "callingCodes": ["971"],
    "capital": "Abu Dhabi",
    "subregion": "Western Asia",
    "region": "Asia"
  },
  {
    "languages": [
      {
        "iso639_1": "en",
        "iso639_2": "eng",
        "name": "English",
        "nativeName": "English"
      }
    ],
    "flag": "https://flagcdn.com/gb.svg",
    "name": "United Kingdom of Great Britain and Northern Ireland",
    "callingCodes": ["44"],
    "capital": "London",
    "subregion": "Northern Europe",
    "region": "Europe"
  },
  {
    "languages": [
      {
        "iso639_1": "en",
        "iso639_2": "eng",
        "name": "English",
        "nativeName": "English"
      }
    ],
    "flag": "https://flagcdn.com/us.svg",
    "name": "United States of America",
    "callingCodes": ["1"],
    "capital": "Washington, D.C.",
    "subregion": "Northern America",
    "region": "Americas"
  },
  {
    "languages": [
      {
        "iso639_1": "es",
        "iso639_2": "spa",
        "name": "Spanish",
        "nativeName": "Español"
      }
    ],
    "flag": "https://flagcdn.com/uy.svg",
    "name": "Uruguay",
    "callingCodes": ["598"],
    "capital": "Montevideo",
    "subregion": "South America",
    "region": "Americas"
  },
  {
    "languages": [
      {
        "iso639_1": "uz",
        "iso639_2": "uzb",
        "name": "Uzbek",
        "nativeName": "Oʻzbek"
      },
      {
        "iso639_1": "ru",
        "iso639_2": "rus",
        "name": "Russian",
        "nativeName": "Русский"
      }
    ],
    "flag": "https://flagcdn.com/uz.svg",
    "name": "Uzbekistan",
    "callingCodes": ["998"],
    "capital": "Tashkent",
    "subregion": "Central Asia",
    "region": "Asia"
  },
  {
    "languages": [
      {
        "iso639_1": "bi",
        "iso639_2": "bis",
        "name": "Bislama",
        "nativeName": "Bislama"
      },
      {
        "iso639_1": "en",
        "iso639_2": "eng",
        "name": "English",
        "nativeName": "English"
      },
      {
        "iso639_1": "fr",
        "iso639_2": "fra",
        "name": "French",
        "nativeName": "français"
      }
    ],
    "flag": "https://flagcdn.com/vu.svg",
    "name": "Vanuatu",
    "callingCodes": ["678"],
    "capital": "Port Vila",
    "subregion": "Melanesia",
    "region": "Oceania"
  },
  {
    "languages": [
      {
        "iso639_1": "es",
        "iso639_2": "spa",
        "name": "Spanish",
        "nativeName": "Español"
      }
    ],
    "flag": "https://flagcdn.com/ve.svg",
    "name": "Venezuela (Bolivarian Republic of)",
    "callingCodes": ["58"],
    "capital": "Caracas",
    "subregion": "South America",
    "region": "Americas"
  },
  {
    "languages": [
      {
        "iso639_1": "vi",
        "iso639_2": "vie",
        "name": "Vietnamese",
        "nativeName": "Tiếng Việt"
      }
    ],
    "flag": "https://flagcdn.com/vn.svg",
    "name": "Vietnam",
    "callingCodes": ["84"],
    "capital": "Hanoi",
    "subregion": "South-Eastern Asia",
    "region": "Asia"
  },
  {
    "languages": [
      {
        "iso639_1": "fr",
        "iso639_2": "fra",
        "name": "French",
        "nativeName": "français"
      }
    ],
    "flag": "https://flagcdn.com/wf.svg",
    "name": "Wallis and Futuna",
    "callingCodes": ["681"],
    "capital": "Mata-Utu",
    "subregion": "Polynesia",
    "region": "Oceania"
  },
  {
    "languages": [
      {
        "iso639_1": "es",
        "iso639_2": "spa",
        "name": "Spanish",
        "nativeName": "Español"
      }
    ],
    "flag": "https://flagcdn.com/eh.svg",
    "name": "Western Sahara",
    "callingCodes": ["212"],
    "capital": "El Aaiún",
    "subregion": "Northern Africa",
    "region": "Africa"
  },
  {
    "languages": [
      {
        "iso639_1": "ar",
        "iso639_2": "ara",
        "name": "Arabic",
        "nativeName": "العربية"
      }
    ],
    "flag": "https://flagcdn.com/ye.svg",
    "name": "Yemen",
    "callingCodes": ["967"],
    "capital": "Sana'a",
    "subregion": "Western Asia",
    "region": "Asia"
  },
  {
    "languages": [
      {
        "iso639_1": "en",
        "iso639_2": "eng",
        "name": "English",
        "nativeName": "English"
      }
    ],
    "flag": "https://flagcdn.com/zm.svg",
    "name": "Zambia",
    "callingCodes": ["260"],
    "capital": "Lusaka",
    "subregion": "Eastern Africa",
    "region": "Africa"
  },
  {
    "languages": [
      {
        "iso639_1": "en",
        "iso639_2": "eng",
        "name": "English",
        "nativeName": "English"
      },
      {
        "iso639_1": "sn",
        "iso639_2": "sna",
        "name": "Shona",
        "nativeName": "chiShona"
      },
      {
        "iso639_1": "nd",
        "iso639_2": "nde",
        "name": "Northern Ndebele",
        "nativeName": "isiNdebele"
      }
    ],
    "flag": "https://flagcdn.com/zw.svg",
    "name": "Zimbabwe",
    "callingCodes": ["263"],
    "capital": "Harare",
    "subregion": "Southern Africa",
    "region": "Africa"
  }
]
